{"type":"FeatureCollection","features":[
{"type":"Feature","properties":{"from":"APCGK-T1","to":"APCGK-SHIA","lines":["KLB"],"lengthM":571},"geometry":{"type":"LineString","coordinates":[[106.655815,-6.130237],[106.655456,-6.130379],[106.655214,-6.130474],[106.655138,-6.130496],[106.655075,-6.130512],[106.655002,-6.130525],[106.654924,-6.130531],[106.654846,-6.130529],[106.654766,-6.130523],[106.654695,-6.130509],[106.654625,-6.130492],[106.654543,-6.130463],[106.654481,-6.130436],[106.654426,-6.130407],[106.654371,-6.130369],[106.654313,-6.13032],[106.654261,-6.130271],[106.654213,-6.130221],[106.654168,-6.130162],[106.654127,-6.130104],[106.654083,-6.130027],[106.654043,-6.129936],[106.653988,-6.129803],[106.653832,-6.1294],[106.653806,-6.129332],[106.653763,-6.129251],[106.653732,-6.129194],[106.653646,-6.129064],[106.653599,-6.128989],[106.653546,-6.128879],[106.65352,-6.128817],[106.65303,-6.127598],[106.652842,-6.127123]]}},
{"type":"Feature","properties":{"from":"APCGK-SHIA","to":"APCGK-T2","lines":["KLB"],"lengthM":546},"geometry":{"type":"LineString","coordinates":[[106.652842,-6.127123],[106.652773,-6.126946],[106.652688,-6.126735],[106.652682,-6.126719],[106.65266,-6.126659],[106.652639,-6.126589],[106.652577,-6.126352],[106.652551,-6.126262],[106.652519,-6.126172],[106.652225,-6.125445],[106.651891,-6.124603],[106.651841,-6.124477],[106.651815,-6.12438],[106.651791,-6.124267],[106.651783,-6.124171],[106.651785,-6.124085],[106.651797,-6.123984],[106.651822,-6.123891],[106.65185,-6.123812],[106.651888,-6.123732],[106.651939,-6.123646],[106.651997,-6.123569],[106.652059,-6.123508],[106.652122,-6.123449],[106.652186,-6.123403],[106.65228,-6.123349],[106.652344,-6.123318],[106.652451,-6.123272],[106.652632,-6.123198],[106.652982,-6.123055]]}},
{"type":"Feature","properties":{"from":"APCGK-T2","to":"APCGK-T3","lines":["KLB"],"lengthM":1536},"geometry":{"type":"LineString","coordinates":[[106.652982,-6.123055],[106.653095,-6.123009],[106.65334,-6.122913],[106.653414,-6.122884],[106.653557,-6.122838],[106.653688,-6.122805],[106.653806,-6.122794],[106.653955,-6.122799],[106.654092,-6.122826],[106.654214,-6.122872],[106.654326,-6.122924],[106.654431,-6.122992],[106.654532,-6.123078],[106.65463,-6.123189],[106.654707,-6.123305],[106.654779,-6.12344],[106.654954,-6.123869],[106.65501,-6.123981],[106.65509,-6.124096],[106.655173,-6.124188],[106.655253,-6.124257],[106.655381,-6.124344],[106.655494,-6.124389],[106.655604,-6.124424],[106.655713,-6.12444],[106.655835,-6.124449],[106.655965,-6.12443],[106.656093,-6.124395],[106.65625,-6.12434],[106.658348,-6.1235],[106.658619,-6.123384],[106.65885,-6.123274],[106.659267,-6.123055],[106.659443,-6.122948],[106.659666,-6.122803],[106.661341,-6.121684],[106.661607,-6.121525],[106.66186,-6.121387],[106.66287,-6.120868],[106.662898,-6.120853],[106.664558,-6.119995],[106.664759,-6.119894],[106.664872,-6.119841]]}}
]}
