{"type":"FeatureCollection","attribution":"© OpenStreetMap contributors","license":"ODbL-1.0 (https://www.openstreetmap.org/copyright)","features":[
{"type":"Feature","properties":{"from":"KCI-CKR","to":"KCI-TLM","lines":["C"],"lengthM":3845},"geometry":{"type":"LineString","coordinates":[[107.145238,-6.255108],[107.142972,-6.254176],[107.142895,-6.254144],[107.14259,-6.254014],[107.142341,-6.25391],[107.141871,-6.253714],[107.141476,-6.253558],[107.141151,-6.253451],[107.140726,-6.253339],[107.140432,-6.253282],[107.140021,-6.253224],[107.139856,-6.253208],[107.139615,-6.253191],[107.139278,-6.253181],[107.138992,-6.253181],[107.138835,-6.253182],[107.13867,-6.25319],[107.138457,-6.253208],[107.138265,-6.253234],[107.138045,-6.253269],[107.1377,-6.253321],[107.137615,-6.253335],[107.137353,-6.253357],[107.137314,-6.25336],[107.137105,-6.253377],[107.135628,-6.253611],[107.13297,-6.254032],[107.132922,-6.254039],[107.132086,-6.254172],[107.129378,-6.254596],[107.128365,-6.254755],[107.128283,-6.254767],[107.128196,-6.254781],[107.124992,-6.255286],[107.124964,-6.25529],[107.120146,-6.25605],[107.119743,-6.256119],[107.119062,-6.256222],[107.117297,-6.256494],[107.116957,-6.256548],[107.116922,-6.256553],[107.115479,-6.256781],[107.112419,-6.257266],[107.111251,-6.257457],[107.111142,-6.257473]]}},
{"type":"Feature","properties":{"from":"KCI-TLM","to":"KCI-CIT","lines":["C"],"lengthM":3080},"geometry":{"type":"LineString","coordinates":[[107.111142,-6.257473],[107.110918,-6.257507],[107.110235,-6.25761],[107.110123,-6.257627],[107.108862,-6.257824],[107.108824,-6.25783],[107.106488,-6.258196],[107.105593,-6.258342],[107.104364,-6.258534],[107.10164,-6.25896],[107.101201,-6.259033],[107.101082,-6.259051],[107.101054,-6.259056],[107.099173,-6.259352],[107.097423,-6.25963],[107.096253,-6.259808],[107.095079,-6.259997],[107.091948,-6.260468],[107.091753,-6.2605],[107.090836,-6.260654],[107.09078,-6.260664],[107.090031,-6.260793],[107.089138,-6.26093],[107.088331,-6.261056],[107.086901,-6.261284],[107.0862,-6.261395],[107.085648,-6.261482],[107.084406,-6.261678],[107.083756,-6.261781],[107.083617,-6.261803]]}},
{"type":"Feature","properties":{"from":"KCI-CIT","to":"KCI-TB","lines":["C"],"lengthM":3155},"geometry":{"type":"LineString","coordinates":[[107.083617,-6.261803],[107.083532,-6.261816],[107.083237,-6.261863],[107.082858,-6.261922],[107.082705,-6.261946],[107.082679,-6.26195],[107.080751,-6.262257],[107.079814,-6.262416],[107.078468,-6.262615],[107.077227,-6.262805],[107.077187,-6.26281],[107.076734,-6.262864],[107.07628,-6.262907],[107.075973,-6.262926],[107.075291,-6.262957],[107.074808,-6.262964],[107.074347,-6.262959],[107.074013,-6.262947],[107.073733,-6.262933],[107.073288,-6.262903],[107.073201,-6.262899],[107.072705,-6.262849],[107.071885,-6.262736],[107.071686,-6.262702],[107.071445,-6.262662],[107.070975,-6.262569],[107.070109,-6.262368],[107.069765,-6.262276],[107.068163,-6.261841],[107.066199,-6.261317],[107.065241,-6.26105],[107.06463,-6.260882],[107.063311,-6.260527],[107.062958,-6.260432],[107.062285,-6.260249],[107.062253,-6.260241],[107.061627,-6.260071],[107.060119,-6.259652],[107.059876,-6.259587],[107.059673,-6.259545],[107.059355,-6.259488],[107.058717,-6.259318],[107.05826,-6.25921],[107.057825,-6.259113],[107.057267,-6.25899],[107.057257,-6.258987],[107.056568,-6.258828],[107.056438,-6.258796],[107.05596,-6.258668],[107.055701,-6.258598]]}},
{"type":"Feature","properties":{"from":"KCI-TB","to":"KCI-BKST","lines":["C"],"lengthM":4364},"geometry":{"type":"LineString","coordinates":[[107.055701,-6.258598],[107.055686,-6.258594],[107.055369,-6.258513],[107.054655,-6.258316],[107.054359,-6.258227],[107.053713,-6.258021],[107.053442,-6.257936],[107.053174,-6.257853],[107.05283,-6.257755],[107.051794,-6.257478],[107.05171,-6.257456],[107.051371,-6.257367],[107.050865,-6.257232],[107.048935,-6.256722],[107.047094,-6.256231],[107.046708,-6.256129],[107.04504,-6.255687],[107.044347,-6.255499],[107.04382,-6.255359],[107.041542,-6.254755],[107.038222,-6.253874],[107.038183,-6.253864],[107.037348,-6.253641],[107.036813,-6.253498],[107.036449,-6.253402],[107.034743,-6.252948],[107.033499,-6.252615],[107.03325,-6.252546],[107.032994,-6.252467],[107.03281,-6.252407],[107.032427,-6.252266],[107.031823,-6.252035],[107.030315,-6.251459],[107.030234,-6.251428],[107.029819,-6.251269],[107.028617,-6.250807],[107.028382,-6.250718],[107.028358,-6.250709],[107.027105,-6.250232],[107.02458,-6.249264],[107.020661,-6.247766],[107.020249,-6.247617],[107.019954,-6.247514],[107.019914,-6.247499],[107.019218,-6.247259],[107.018764,-6.247096],[107.018655,-6.247055],[107.018223,-6.246893],[107.018085,-6.246839]]}},
{"type":"Feature","properties":{"from":"KCI-BKST","to":"KCI-BKS","lines":["C"],"lengthM":2416},"geometry":{"type":"LineString","coordinates":[[107.018085,-6.246839],[107.017951,-6.246787],[107.017283,-6.246519],[107.016949,-6.246381],[107.016797,-6.246317],[107.016116,-6.246033],[107.01596,-6.245967],[107.015165,-6.245662],[107.01493,-6.245571],[107.013669,-6.245088],[107.013591,-6.245059],[107.013267,-6.244935],[107.013032,-6.244844],[107.011752,-6.244354],[107.010674,-6.243939],[107.010143,-6.243714],[107.00937,-6.243333],[107.008424,-6.242856],[107.00835,-6.242819],[107.008255,-6.242764],[107.008129,-6.242686],[107.00791,-6.242554],[107.007554,-6.242373],[107.00725,-6.242209],[107.007043,-6.242088],[107.006687,-6.241856],[107.00609,-6.241415],[107.005814,-6.24118],[107.005595,-6.240986],[107.005267,-6.240679],[107.005077,-6.24052],[107.004882,-6.240356],[107.0048,-6.240282],[107.004449,-6.239976],[107.00388,-6.239511],[107.003571,-6.239275],[107.00313,-6.238975],[107.002588,-6.238642],[107.002043,-6.238307],[107.00063,-6.237424],[107.000573,-6.237389],[107.000236,-6.237179],[106.999986,-6.237028],[106.999948,-6.237006],[106.999357,-6.236651],[106.99906,-6.236463]]}},
{"type":"Feature","properties":{"from":"KCI-BKS","to":"KCI-KRI","lines":["C"],"lengthM":2516},"geometry":{"type":"LineString","coordinates":[[106.99906,-6.236463],[106.998845,-6.236327],[106.997128,-6.235239],[106.996874,-6.235078],[106.996722,-6.234988],[106.996675,-6.234959],[106.996258,-6.2347],[106.996193,-6.234656],[106.996141,-6.234622],[106.995384,-6.234127],[106.995006,-6.233891],[106.99457,-6.233627],[106.993168,-6.232789],[106.992987,-6.232675],[106.992472,-6.232353],[106.992179,-6.23217],[106.992165,-6.232161],[106.990993,-6.23143],[106.990747,-6.231276],[106.990602,-6.231186],[106.989758,-6.230659],[106.989703,-6.230625],[106.989678,-6.230609],[106.98927,-6.230344],[106.988547,-6.229872],[106.988369,-6.229756],[106.987627,-6.229293],[106.986454,-6.22856],[106.985647,-6.228058],[106.985398,-6.227901],[106.984726,-6.227484],[106.984007,-6.227037],[106.983689,-6.22684],[106.983643,-6.226811],[106.98335,-6.22663],[106.98284,-6.226312],[106.982084,-6.225848],[106.980792,-6.225027],[106.979879,-6.224452],[106.979799,-6.224402]]}},
{"type":"Feature","properties":{"from":"KCI-KRI","to":"KCI-CUK","lines":["C"],"lengthM":3145},"geometry":{"type":"LineString","coordinates":[[106.979799,-6.224402],[106.978889,-6.223832],[106.978008,-6.223274],[106.977377,-6.222893],[106.977025,-6.222686],[106.976808,-6.222559],[106.976546,-6.222423],[106.976327,-6.222324],[106.9759,-6.222141],[106.975265,-6.221918],[106.974849,-6.221796],[106.974535,-6.221722],[106.974213,-6.221663],[106.97397,-6.221623],[106.973605,-6.221578],[106.97194,-6.22137],[106.971136,-6.221287],[106.970693,-6.221239],[106.97069,-6.221239],[106.970696,-6.221182],[106.970461,-6.221155],[106.966661,-6.220712],[106.963519,-6.220339],[106.962682,-6.220237],[106.960615,-6.219978],[106.959074,-6.219785],[106.958179,-6.219684],[106.957596,-6.219614],[106.956888,-6.219552],[106.95638,-6.219499],[106.953959,-6.219198],[106.952289,-6.218985],[106.952293,-6.218955]]}},
{"type":"Feature","properties":{"from":"KCI-CUK","to":"KCI-KLDB","lines":["C"],"lengthM":1360},"geometry":{"type":"LineString","coordinates":[[106.952293,-6.218955],[106.952198,-6.218974],[106.951632,-6.218913],[106.949795,-6.218748],[106.949294,-6.218699],[106.948701,-6.218613],[106.948553,-6.218594],[106.948502,-6.218644],[106.948343,-6.218618],[106.94771,-6.218504],[106.946742,-6.218369],[106.945526,-6.21824],[106.945338,-6.218219],[106.942948,-6.217935],[106.941762,-6.217788],[106.940101,-6.217589]]}},
{"type":"Feature","properties":{"from":"KCI-KLDB","to":"KCI-BUA","lines":["C"],"lengthM":1889},"geometry":{"type":"LineString","coordinates":[[106.940101,-6.217589],[106.939936,-6.217505],[106.938919,-6.217384],[106.938605,-6.217346],[106.936263,-6.217068],[106.933675,-6.216769],[106.93249,-6.216626],[106.931228,-6.216475],[106.927522,-6.216032],[106.926894,-6.215962],[106.925636,-6.215797],[106.924879,-6.215711],[106.924647,-6.21568],[106.924647,-6.215646],[106.923983,-6.215563],[106.923766,-6.215536],[106.923192,-6.215465]]}},
{"type":"Feature","properties":{"from":"KCI-BUA","to":"KCI-KLD","lines":["C"],"lengthM":2653},"geometry":{"type":"LineString","coordinates":[[106.923192,-6.215465],[106.92318,-6.215552],[106.921403,-6.215326],[106.920111,-6.215198],[106.919427,-6.21512],[106.912471,-6.21425],[106.910207,-6.213981],[106.910043,-6.213958],[106.907102,-6.213591],[106.906285,-6.213496],[106.905808,-6.21345],[106.905342,-6.213416],[106.904691,-6.213381],[106.901022,-6.213296],[106.900638,-6.213287],[106.899401,-6.213258]]}},
{"type":"Feature","properties":{"from":"KCI-KLD","to":"KCI-JNG","lines":["C"],"lengthM":3244},"geometry":{"type":"LineString","coordinates":[[106.899401,-6.213258],[106.898647,-6.21324],[106.897488,-6.213225],[106.895851,-6.213199],[106.895668,-6.213195],[106.894156,-6.213163],[106.892527,-6.213129],[106.892294,-6.213123],[106.891686,-6.213137],[106.891227,-6.213169],[106.890772,-6.213223],[106.890284,-6.213305],[106.889806,-6.213422],[106.888551,-6.21383],[106.888362,-6.213881],[106.888171,-6.213925],[106.887731,-6.214022],[106.887593,-6.214048],[106.887468,-6.21407],[106.887294,-6.214097],[106.886928,-6.214139],[106.884892,-6.214269],[106.880037,-6.214553],[106.879977,-6.214556],[106.877482,-6.214703],[106.876957,-6.214736],[106.876163,-6.214798],[106.875973,-6.214813],[106.875545,-6.214839],[106.875207,-6.214854],[106.874892,-6.214868],[106.874723,-6.214876],[106.87445,-6.214871],[106.8742,-6.214866],[106.874126,-6.21487],[106.873906,-6.214868],[106.873703,-6.214867],[106.873549,-6.214867],[106.873403,-6.214877],[106.873102,-6.214894],[106.872889,-6.214899],[106.872781,-6.214898],[106.872691,-6.214897],[106.872148,-6.214885],[106.87212,-6.214884],[106.871999,-6.214884],[106.87152,-6.214886],[106.8706,-6.214895],[106.870342,-6.214898],[106.8702,-6.214898]]}},
{"type":"Feature","properties":{"from":"KCI-JNG","to":"KCI-POK","lines":["C"],"lengthM":1176},"geometry":{"type":"LineString","coordinates":[[106.8702,-6.214898],[106.869974,-6.214897],[106.869777,-6.214902],[106.869644,-6.214906],[106.869278,-6.214919],[106.869085,-6.214926],[106.869036,-6.214928],[106.868894,-6.214929],[106.868517,-6.214929],[106.868471,-6.214929],[106.868227,-6.214911],[106.86809,-6.214893],[106.867943,-6.214867],[106.867756,-6.214822],[106.867589,-6.21477],[106.867367,-6.214692],[106.867222,-6.214634],[106.867065,-6.21456],[106.866902,-6.214466],[106.866748,-6.21436],[106.866663,-6.214294],[106.866618,-6.214252],[106.866529,-6.214169],[106.866469,-6.214107],[106.86633,-6.213965],[106.866297,-6.213934],[106.866216,-6.213849],[106.866121,-6.21375],[106.865943,-6.213564],[106.865711,-6.213355],[106.864905,-6.212622],[106.864659,-6.212407],[106.863921,-6.211808],[106.863514,-6.21147],[106.863476,-6.211434],[106.86331,-6.211271],[106.863121,-6.21104],[106.863036,-6.210921],[106.86293,-6.210744],[106.862893,-6.210681],[106.862794,-6.210491],[106.862691,-6.210234],[106.862602,-6.209972],[106.86254,-6.209767],[106.862413,-6.209311],[106.862322,-6.209094]]}},
{"type":"Feature","properties":{"from":"KCI-POK","to":"KCI-KMT","lines":["C"],"lengthM":1861},"geometry":{"type":"LineString","coordinates":[[106.862322,-6.209094],[106.862178,-6.208566],[106.86217,-6.208536],[106.861213,-6.205027],[106.860298,-6.201671],[106.860032,-6.200735],[106.859038,-6.19764],[106.858688,-6.19683],[106.858496,-6.196441],[106.858412,-6.196291],[106.858268,-6.196075],[106.857969,-6.195619],[106.856886,-6.194173],[106.856794,-6.194051],[106.856471,-6.193622],[106.856502,-6.193598]]}},
{"type":"Feature","properties":{"from":"KCI-KMT","to":"KCI-GST","lines":["C"],"lengthM":1064},"geometry":{"type":"LineString","coordinates":[[106.856502,-6.193598],[106.85549,-6.192261],[106.855451,-6.192271],[106.855371,-6.192165],[106.85448,-6.190988],[106.852631,-6.188546],[106.851697,-6.187295],[106.851618,-6.187188],[106.851148,-6.18654],[106.851123,-6.186506],[106.851052,-6.186416],[106.850806,-6.18609],[106.850724,-6.185982]]}},
{"type":"Feature","properties":{"from":"KCI-GST","to":"KCI-PSE","lines":["C"],"lengthM":1466},"geometry":{"type":"LineString","coordinates":[[106.850724,-6.185982],[106.850179,-6.185259],[106.850117,-6.185177],[106.846909,-6.180918],[106.846745,-6.180683],[106.846616,-6.180467],[106.846514,-6.180261],[106.8464,-6.180015],[106.846266,-6.179622],[106.8456,-6.177109],[106.845522,-6.176871],[106.845448,-6.176691],[106.845298,-6.176369],[106.845266,-6.176299],[106.845134,-6.176027],[106.845007,-6.175741],[106.844988,-6.1757],[106.84486,-6.175426],[106.844787,-6.175271],[106.844499,-6.174524]]}},
{"type":"Feature","properties":{"from":"KCI-PSE","to":"KCI-KMO","lines":["C"],"lengthM":1485},"geometry":{"type":"LineString","coordinates":[[106.844499,-6.174524],[106.844183,-6.173701],[106.843755,-6.172415],[106.843546,-6.171804],[106.843406,-6.171382],[106.843395,-6.17135],[106.843345,-6.171186],[106.843269,-6.170863],[106.843232,-6.170722],[106.843182,-6.170354],[106.843152,-6.17013],[106.843128,-6.169807],[106.843135,-6.168586],[106.843123,-6.167738],[106.843064,-6.167233],[106.842577,-6.165415],[106.842181,-6.163832],[106.842041,-6.163344],[106.842023,-6.163282],[106.841864,-6.162732],[106.841841,-6.162661],[106.841508,-6.161598]]}},
{"type":"Feature","properties":{"from":"KCI-KMO","to":"KCI-RJW","lines":["C"],"lengthM":1943},"geometry":{"type":"LineString","coordinates":[[106.841508,-6.161598],[106.841246,-6.160763],[106.841014,-6.160076],[106.840833,-6.159527],[106.840606,-6.158977],[106.840419,-6.158339],[106.840331,-6.157999],[106.838921,-6.152153],[106.83779,-6.148358],[106.83775,-6.148238],[106.837703,-6.148094],[106.837182,-6.146311],[106.837097,-6.145997],[106.836758,-6.144904],[106.836722,-6.144793]]}},
{"type":"Feature","properties":{"from":"KCI-RJW","to":"KCI-KPB","lines":["C"],"lengthM":1810},"geometry":{"type":"LineString","coordinates":[[106.836722,-6.144793],[106.836664,-6.144618],[106.836589,-6.144437],[106.836461,-6.144191],[106.836321,-6.143948],[106.836157,-6.143704],[106.835956,-6.143436],[106.835675,-6.143118],[106.835471,-6.142903],[106.835278,-6.142735],[106.835143,-6.142629],[106.834508,-6.14219],[106.834003,-6.141937],[106.833573,-6.141776],[106.833499,-6.141754],[106.833433,-6.141731],[106.833364,-6.14171],[106.83327,-6.141679],[106.833257,-6.141674],[106.832812,-6.141511],[106.832258,-6.141259],[106.831972,-6.141084],[106.831694,-6.140885],[106.831425,-6.140627],[106.831243,-6.140417],[106.831054,-6.140135],[106.830946,-6.139937],[106.830843,-6.139698],[106.830778,-6.139482],[106.830715,-6.139114],[106.830692,-6.138531],[106.830703,-6.135302],[106.8307,-6.135249],[106.83069,-6.134996],[106.830686,-6.13492],[106.83067,-6.134709],[106.830509,-6.134188],[106.830259,-6.133758],[106.830056,-6.13351],[106.829644,-6.133124],[106.829437,-6.132984],[106.828931,-6.132701],[106.828516,-6.132472]]}},
{"type":"Feature","properties":{"from":"KCI-KPB","to":"KCI-AK","lines":["C"],"lengthM":4419},"geometry":{"type":"LineString","coordinates":[[106.828516,-6.132472],[106.828202,-6.132299],[106.827988,-6.132204],[106.827719,-6.132114],[106.82752,-6.132068],[106.827281,-6.132031],[106.826971,-6.132017],[106.826684,-6.132033],[106.8261,-6.132129],[106.825926,-6.132161],[106.8255,-6.132239],[106.82514,-6.132301],[106.824464,-6.132418],[106.82315,-6.132636],[106.822945,-6.132671],[106.822609,-6.132751],[106.822099,-6.132883],[106.821788,-6.132932],[106.82159,-6.132948],[106.821428,-6.132947],[106.821159,-6.132938],[106.820923,-6.132909],[106.820559,-6.132831],[106.819632,-6.132508],[106.819346,-6.13239],[106.818914,-6.132186],[106.818592,-6.132005],[106.816821,-6.130972],[106.815858,-6.130478],[106.815568,-6.130371],[106.815268,-6.130292],[106.814845,-6.130203],[106.8141,-6.130043],[106.81373,-6.13003],[106.813383,-6.130093],[106.812329,-6.130373],[106.812045,-6.130448],[106.811886,-6.130487],[106.811544,-6.13058],[106.810646,-6.130826],[106.810352,-6.130902],[106.810237,-6.130931],[106.810182,-6.130944],[106.809641,-6.131084],[106.809561,-6.131105],[106.807127,-6.131737],[106.807048,-6.131757],[106.806504,-6.131898],[106.805656,-6.132113],[106.802592,-6.132896],[106.802143,-6.133053],[106.801872,-6.133187],[106.801601,-6.133357],[106.801378,-6.133532],[106.801158,-6.133737],[106.800939,-6.133983],[106.800757,-6.134234],[106.800575,-6.134569],[106.800481,-6.134791],[106.800394,-6.135049],[106.800316,-6.135395],[106.800264,-6.135708],[106.800261,-6.13593],[106.800282,-6.136545],[106.800287,-6.136609],[106.800294,-6.136703],[106.800361,-6.137611],[106.800451,-6.139182],[106.800595,-6.141769],[106.800603,-6.141987],[106.800603,-6.142006],[106.800609,-6.142135],[106.800648,-6.142866],[106.800655,-6.142968],[106.80069,-6.143541],[106.800747,-6.144603]]}},
{"type":"Feature","properties":{"from":"KCI-AK","to":"KCI-DU","lines":["C"],"lengthM":1180},"geometry":{"type":"LineString","coordinates":[[106.800747,-6.144603],[106.800796,-6.145516],[106.800831,-6.146142],[106.800886,-6.146883],[106.800904,-6.147152],[106.800905,-6.14772],[106.80094,-6.148361],[106.800945,-6.148479],[106.801124,-6.151789],[106.801155,-6.152176],[106.80119,-6.152718],[106.801201,-6.15293],[106.801216,-6.153298],[106.80123,-6.153689],[106.801265,-6.154564],[106.801291,-6.155073],[106.801298,-6.1552]]}},
{"type":"Feature","properties":{"from":"KCI-DU","to":"KCI-THB","lines":["C"],"lengthM":3668},"geometry":{"type":"LineString","coordinates":[[106.801298,-6.1552],[106.801315,-6.155494],[106.801345,-6.15604],[106.801406,-6.157452],[106.801448,-6.158078],[106.801532,-6.15893],[106.801557,-6.159147],[106.801582,-6.159607],[106.801677,-6.161593],[106.801979,-6.166719],[106.802003,-6.166976],[106.802031,-6.167204],[106.802065,-6.167387],[106.802143,-6.167669],[106.802234,-6.167913],[106.802369,-6.168222],[106.802439,-6.168384],[106.802535,-6.168565],[106.803284,-6.169692],[106.805231,-6.172494],[106.806511,-6.174346],[106.809508,-6.178693],[106.809807,-6.179109],[106.810017,-6.179435],[106.8101,-6.179604],[106.81016,-6.17974],[106.810216,-6.179928],[106.810263,-6.180131],[106.810312,-6.180443],[106.81036,-6.180918],[106.810399,-6.181316],[106.810502,-6.182258],[106.81051,-6.182333],[106.810511,-6.182726],[106.810514,-6.182894],[106.810516,-6.183081],[106.810524,-6.183141],[106.810549,-6.183682],[106.810548,-6.183937],[106.810694,-6.185531],[106.810712,-6.185699]]}},
{"type":"Feature","properties":{"from":"KCI-THB","to":"KCI-SUDB","lines":["C"],"lengthM":2430},"geometry":{"type":"LineString","coordinates":[[106.810712,-6.185699],[106.810736,-6.185936],[106.810794,-6.186527],[106.81082,-6.186743],[106.810862,-6.186959],[106.810898,-6.187126],[106.810955,-6.187384],[106.811004,-6.187649],[106.811079,-6.187628],[106.811113,-6.187948],[106.811125,-6.188124],[106.811131,-6.188295],[106.811114,-6.188506],[106.811096,-6.188619],[106.811068,-6.188779],[106.811041,-6.18915],[106.810973,-6.189549],[106.810935,-6.189726],[106.810582,-6.190966],[106.810439,-6.191483],[106.810324,-6.191958],[106.810261,-6.192296],[106.810244,-6.192456],[106.81024,-6.192635],[106.810248,-6.193072],[106.810452,-6.194618],[106.810482,-6.194769],[106.810528,-6.194952],[106.810607,-6.195202],[106.810755,-6.195574],[106.81079,-6.195656],[106.811135,-6.196461],[106.812104,-6.198776],[106.812241,-6.199042],[106.81243,-6.199325],[106.81268,-6.199588],[106.812864,-6.199762],[106.813141,-6.199965],[106.813393,-6.200106],[106.813671,-6.200231],[106.813952,-6.200315],[106.81521,-6.200594],[106.815534,-6.200669],[106.815753,-6.200716],[106.815975,-6.200764],[106.817839,-6.201167],[106.818682,-6.201353],[106.819589,-6.201549]]}},
{"type":"Feature","properties":{"from":"KCI-SUDB","to":"KCI-SUD","lines":["C"],"lengthM":464},"geometry":{"type":"LineString","coordinates":[[106.819589,-6.201549],[106.822345,-6.202144],[106.82252,-6.202183],[106.822686,-6.202221],[106.823073,-6.202306],[106.823242,-6.202345],[106.823688,-6.20245]]}},
{"type":"Feature","properties":{"from":"KCI-SUD","to":"KCI-MRI","lines":["C"],"lengthM":3175},"geometry":{"type":"LineString","coordinates":[[106.823688,-6.20245],[106.823688,-6.20245],[106.824342,-6.202605],[106.824985,-6.20276],[106.825624,-6.20291],[106.825732,-6.20297],[106.828623,-6.203653],[106.830555,-6.204108],[106.831226,-6.204229],[106.831259,-6.204235],[106.83267,-6.204442],[106.834031,-6.204642],[106.835581,-6.204867],[106.835855,-6.204907],[106.836705,-6.205032],[106.837036,-6.205081],[106.837324,-6.205153],[106.838734,-6.205627],[106.838819,-6.205656],[106.841047,-6.206396],[106.841146,-6.206429],[106.841483,-6.206534],[106.841683,-6.20657],[106.841912,-6.20659],[106.842051,-6.206592],[106.842209,-6.206583],[106.842514,-6.206558],[106.842712,-6.206514],[106.842885,-6.206468],[106.843032,-6.206416],[106.843244,-6.206325],[106.843912,-6.205965],[106.844184,-6.205849],[106.844457,-6.205772],[106.844757,-6.205717],[106.844885,-6.205706],[106.84504,-6.205702],[106.845245,-6.205703],[106.845491,-6.205731],[106.845704,-6.205771],[106.845959,-6.205841],[106.846151,-6.205922],[106.846281,-6.205976],[106.846341,-6.206006],[106.846367,-6.20602],[106.846444,-6.206063],[106.846593,-6.206156],[106.846776,-6.206289],[106.84686,-6.206363],[106.846939,-6.206438],[106.84708,-6.206584],[106.847175,-6.206689],[106.84727,-6.206798],[106.847437,-6.207022],[106.847461,-6.207053],[106.84763,-6.207247],[106.847797,-6.207437],[106.847827,-6.207476],[106.847997,-6.207671],[106.848079,-6.207765],[106.848164,-6.207861],[106.848315,-6.208057],[106.848331,-6.208078],[106.848639,-6.208484],[106.848667,-6.208518],[106.84897,-6.20892],[106.849001,-6.208962],[106.849228,-6.209258],[106.849281,-6.209329],[106.849364,-6.209438],[106.849378,-6.209456],[106.849411,-6.209499],[106.849622,-6.209765],[106.8498,-6.21]]}},
{"type":"Feature","properties":{"from":"KCI-MRI","to":"KCI-MTR","lines":["C"],"lengthM":1372},"geometry":{"type":"LineString","coordinates":[[106.8498,-6.21],[106.849896,-6.210127],[106.850231,-6.210568],[106.850861,-6.211396],[106.850971,-6.21155],[106.851013,-6.211609],[106.851368,-6.212126],[106.851555,-6.2124],[106.851714,-6.212599],[106.851887,-6.212824],[106.852028,-6.213016],[106.852094,-6.213101],[106.852253,-6.213296],[106.852369,-6.213434],[106.852589,-6.213692],[106.852706,-6.213815],[106.852807,-6.213905],[106.852935,-6.21402],[106.853072,-6.21412],[106.853223,-6.21421],[106.853562,-6.21437],[106.853788,-6.214436],[106.853977,-6.214484],[106.854291,-6.21452],[106.854546,-6.214529],[106.854776,-6.214515],[106.855007,-6.214482],[106.855213,-6.214434],[106.855467,-6.214353],[106.85575,-6.214233],[106.856322,-6.213993],[106.85638,-6.213968],[106.858296,-6.213152],[106.858397,-6.21311],[106.858451,-6.213088],[106.858671,-6.212999],[106.858792,-6.212946],[106.858905,-6.212894],[106.859722,-6.212551]]}},
{"type":"Feature","properties":{"from":"KCI-MTR","to":"KCI-JNG","lines":["C"],"lengthM":1294},"geometry":{"type":"LineString","coordinates":[[106.859722,-6.212551],[106.860849,-6.212076],[106.860928,-6.212044],[106.861121,-6.211964],[106.86113,-6.21196],[106.861162,-6.211947],[106.861437,-6.211834],[106.861547,-6.211792],[106.861709,-6.211743],[106.861922,-6.211691],[106.862133,-6.211659],[106.862369,-6.211644],[106.862475,-6.211643],[106.862667,-6.211654],[106.862797,-6.211669],[106.86292,-6.211688],[106.863018,-6.211706],[106.86311,-6.211727],[106.863312,-6.211789],[106.863422,-6.211828],[106.863514,-6.211867],[106.863644,-6.211929],[106.863754,-6.211987],[106.863894,-6.21207],[106.864001,-6.21214],[106.864014,-6.212149],[106.864167,-6.212268],[106.864287,-6.212373],[106.86469,-6.212742],[106.865096,-6.213117],[106.865229,-6.213239],[106.865505,-6.213455],[106.865782,-6.213672],[106.865814,-6.213703],[106.866021,-6.213866],[106.866113,-6.21394],[106.866216,-6.214022],[106.866257,-6.214059],[106.866412,-6.214201],[106.866585,-6.214348],[106.866695,-6.214432],[106.866771,-6.214484],[106.866853,-6.214535],[106.866971,-6.214604],[106.867085,-6.214662],[106.867219,-6.214722],[106.867383,-6.214782],[106.86747,-6.21481],[106.867562,-6.214837],[106.867707,-6.21487],[106.867807,-6.214888],[106.867934,-6.214904],[106.868113,-6.214922],[106.868262,-6.214927],[106.868471,-6.214929],[106.868517,-6.214929],[106.868894,-6.214929],[106.869036,-6.214928],[106.869085,-6.214926],[106.869278,-6.214919],[106.869644,-6.214906],[106.869777,-6.214902],[106.869974,-6.214897],[106.8702,-6.214898]]}},
{"type":"Feature","properties":{"from":"KCI-JAKK","to":"KCI-JAY","lines":["B"],"lengthM":1282},"geometry":{"type":"LineString","coordinates":[[106.814727,-6.137434],[106.815891,-6.137101],[106.816627,-6.136867],[106.816869,-6.136808],[106.816883,-6.136923],[106.816993,-6.136886],[106.817535,-6.13675],[106.817957,-6.136644],[106.818063,-6.136655],[106.818392,-6.136573],[106.818445,-6.136564],[106.818771,-6.136482],[106.818875,-6.136533],[106.818884,-6.136565],[106.819171,-6.136497],[106.819624,-6.136402],[106.819875,-6.136378],[106.820144,-6.136371],[106.820389,-6.136408],[106.820655,-6.13648],[106.820901,-6.136592],[106.821067,-6.136678],[106.821211,-6.13677],[106.821349,-6.136893],[106.821465,-6.137033],[106.821582,-6.137185],[106.821749,-6.137457],[106.821839,-6.137727],[106.822369,-6.139625],[106.822555,-6.140184],[106.822578,-6.140243],[106.822691,-6.140541],[106.822776,-6.140738],[106.822895,-6.141002],[106.822937,-6.14108]]}},
{"type":"Feature","properties":{"from":"KCI-JAY","to":"KCI-MGB","lines":["B"],"lengthM":1077},"geometry":{"type":"LineString","coordinates":[[106.822937,-6.14108],[106.823033,-6.141256],[106.823275,-6.141681],[106.823524,-6.142096],[106.824235,-6.143279],[106.824512,-6.143723],[106.82573,-6.145719],[106.826144,-6.146547],[106.826235,-6.146753],[106.826386,-6.147148],[106.826528,-6.147564],[106.826613,-6.147873],[106.826699,-6.148231],[106.826802,-6.148823],[106.826971,-6.149788]]}},
{"type":"Feature","properties":{"from":"KCI-MGB","to":"KCI-SW","lines":["B"],"lengthM":1206},"geometry":{"type":"LineString","coordinates":[[106.826971,-6.149788],[106.827099,-6.150523],[106.827222,-6.151273],[106.827289,-6.151862],[106.82733,-6.152782],[106.827359,-6.153804],[106.827433,-6.158479],[106.827468,-6.159437],[106.827484,-6.15969],[106.82751,-6.160024],[106.827578,-6.16044],[106.827613,-6.160597]]}},
{"type":"Feature","properties":{"from":"KCI-SW","to":"KCI-JUA","lines":["B"],"lengthM":758},"geometry":{"type":"LineString","coordinates":[[106.827613,-6.160597],[106.827639,-6.160711],[106.827772,-6.161155],[106.827899,-6.161475],[106.827973,-6.161644],[106.82804,-6.161792],[106.828166,-6.162017],[106.828335,-6.162305],[106.828535,-6.162601],[106.82892,-6.163143],[106.829477,-6.163921],[106.829705,-6.164289],[106.829843,-6.164531],[106.829994,-6.164828],[106.830121,-6.165154],[106.83018,-6.165306],[106.830307,-6.16574],[106.830382,-6.166128],[106.830431,-6.166517],[106.830439,-6.166698]]}},
{"type":"Feature","properties":{"from":"KCI-JUA","to":"KCI-GDD","lines":["B"],"lengthM":2177},"geometry":{"type":"LineString","coordinates":[[106.830439,-6.166698],[106.830493,-6.166939],[106.830502,-6.167258],[106.830505,-6.167564],[106.830505,-6.167831],[106.830506,-6.168264],[106.830499,-6.168376],[106.830493,-6.16843],[106.830447,-6.168835],[106.830339,-6.169355],[106.829905,-6.170978],[106.829886,-6.171063],[106.829818,-6.171376],[106.829784,-6.171639],[106.829758,-6.171946],[106.829753,-6.172368],[106.829796,-6.172864],[106.829863,-6.173372],[106.82998,-6.173883],[106.830094,-6.174422],[106.830118,-6.174528],[106.830338,-6.175527],[106.830431,-6.175903],[106.830524,-6.176214],[106.831013,-6.177729],[106.831295,-6.178531],[106.831328,-6.17862],[106.831396,-6.178866],[106.831463,-6.179115],[106.831656,-6.179734],[106.831734,-6.180046],[106.831829,-6.180559],[106.832157,-6.182812],[106.832383,-6.184561],[106.832504,-6.185551],[106.832564,-6.185861]]}},
{"type":"Feature","properties":{"from":"KCI-GDD","to":"KCI-CKI","lines":["B"],"lengthM":1702},"geometry":{"type":"LineString","coordinates":[[106.832564,-6.185861],[106.832649,-6.186219],[106.832764,-6.186576],[106.83289,-6.186933],[106.832925,-6.18692],[106.833025,-6.187182],[106.833125,-6.187399],[106.833254,-6.18767],[106.833586,-6.188245],[106.834399,-6.18937],[106.835946,-6.191427],[106.837517,-6.193531],[106.839594,-6.19628],[106.840432,-6.197419],[106.841179,-6.198415]]}},
{"type":"Feature","properties":{"from":"KCI-CKI","to":"KCI-MRI","lines":["B"],"lengthM":1603},"geometry":{"type":"LineString","coordinates":[[106.841179,-6.198415],[106.841887,-6.199359],[106.841972,-6.199472],[106.843163,-6.201057],[106.843215,-6.201126],[106.843291,-6.201236],[106.843506,-6.201567],[106.843594,-6.201693],[106.84366,-6.201781],[106.844154,-6.20244],[106.845941,-6.204828],[106.846068,-6.204997],[106.84612,-6.205072],[106.846418,-6.2055],[106.846803,-6.20605],[106.847153,-6.206516],[106.847436,-6.206898],[106.847739,-6.2073],[106.847855,-6.207453],[106.848086,-6.207759],[106.848164,-6.207861],[106.848315,-6.208057],[106.848331,-6.208078],[106.848639,-6.208484],[106.848667,-6.208518],[106.84897,-6.20892],[106.849001,-6.208962],[106.849228,-6.209258],[106.849281,-6.209329],[106.849364,-6.209438],[106.849378,-6.209456],[106.849411,-6.209499],[106.849622,-6.209765],[106.8498,-6.21]]}},
{"type":"Feature","properties":{"from":"KCI-MRI","to":"KCI-TEB","lines":["B"],"lengthM":2092},"geometry":{"type":"LineString","coordinates":[[106.8498,-6.21],[106.849896,-6.210127],[106.850231,-6.210568],[106.850861,-6.211396],[106.850971,-6.21155],[106.851013,-6.211609],[106.851368,-6.212126],[106.851555,-6.2124],[106.851862,-6.212846],[106.851963,-6.212982],[106.852014,-6.213056],[106.852064,-6.213121],[106.852289,-6.213397],[106.852332,-6.213451],[106.852408,-6.213561],[106.852547,-6.213766],[106.852648,-6.213914],[106.852723,-6.214015],[106.852818,-6.214128],[106.852935,-6.214259],[106.853147,-6.214482],[106.853266,-6.214608],[106.853452,-6.214818],[106.853664,-6.215086],[106.85379,-6.215262],[106.85403,-6.215645],[106.854336,-6.216134],[106.854416,-6.216253],[106.854443,-6.216289],[106.854582,-6.216503],[106.854724,-6.216716],[106.85483,-6.216853],[106.854972,-6.217043],[106.855378,-6.217576],[106.855768,-6.218082],[106.855798,-6.21812],[106.855957,-6.218325],[106.856074,-6.218479],[106.856318,-6.218797],[106.85666,-6.219256],[106.856841,-6.219517],[106.857001,-6.219764],[106.857212,-6.220124],[106.857344,-6.220347],[106.857477,-6.220619],[106.857668,-6.221009],[106.857792,-6.221314],[106.857883,-6.22157],[106.857971,-6.22188],[106.858136,-6.222511],[106.858234,-6.222995],[106.858309,-6.223497],[106.858362,-6.224174],[106.858372,-6.22466],[106.858394,-6.225271],[106.858395,-6.225931],[106.858399,-6.2262]]}},
{"type":"Feature","properties":{"from":"KCI-TEB","to":"KCI-CW","lines":["B"],"lengthM":1801},"geometry":{"type":"LineString","coordinates":[[106.858399,-6.2262],[106.858419,-6.227533],[106.858487,-6.230954],[106.85854,-6.234064],[106.858551,-6.234658],[106.858557,-6.235145],[106.858578,-6.236733],[106.858599,-6.238226],[106.858636,-6.240973],[106.85867,-6.242398]]}},
{"type":"Feature","properties":{"from":"KCI-CW","to":"KCI-DRN","lines":["B"],"lengthM":1504},"geometry":{"type":"LineString","coordinates":[[106.85867,-6.242398],[106.858675,-6.242671],[106.85868,-6.24287],[106.858699,-6.243529],[106.858708,-6.244545],[106.85872,-6.244965],[106.858715,-6.245682],[106.858679,-6.246259],[106.858649,-6.246497],[106.858606,-6.246805],[106.858558,-6.247042],[106.858376,-6.247769],[106.858247,-6.248203],[106.858094,-6.2486],[106.857872,-6.249144],[106.85762,-6.249729],[106.857209,-6.25066],[106.856952,-6.251223],[106.856648,-6.251861],[106.856386,-6.252431],[106.856168,-6.252904],[106.855944,-6.253403],[106.855758,-6.253817],[106.85542,-6.254581],[106.855133,-6.255212],[106.855133,-6.255214]]}},
{"type":"Feature","properties":{"from":"KCI-DRN","to":"KCI-PSMB","lines":["B"],"lengthM":940},"geometry":{"type":"LineString","coordinates":[[106.855133,-6.255214],[106.855031,-6.255446],[106.854929,-6.255665],[106.854889,-6.255751],[106.854779,-6.255995],[106.85446,-6.256705],[106.853943,-6.257884],[106.853604,-6.258674],[106.852815,-6.260471],[106.851955,-6.262391],[106.851705,-6.262947]]}},
{"type":"Feature","properties":{"from":"KCI-PSMB","to":"KCI-PSM","lines":["B"],"lengthM":2484},"geometry":{"type":"LineString","coordinates":[[106.851705,-6.262947],[106.851099,-6.264298],[106.850499,-6.265668],[106.84916,-6.268656],[106.848798,-6.269457],[106.8486,-6.269904],[106.84784,-6.271562],[106.84733,-6.272757],[106.847312,-6.272806],[106.847231,-6.272976],[106.847049,-6.273354],[106.846939,-6.273631],[106.84663,-6.274521],[106.846475,-6.274969],[106.846238,-6.275786],[106.84616,-6.276103],[106.846056,-6.276558],[106.845863,-6.277633],[106.845541,-6.279406],[106.84544,-6.279954],[106.845364,-6.280361],[106.845301,-6.280702],[106.845151,-6.281502],[106.844757,-6.283767],[106.844712,-6.284035]]}},
{"type":"Feature","properties":{"from":"KCI-PSM","to":"KCI-TNT","lines":["B"],"lengthM":2736},"geometry":{"type":"LineString","coordinates":[[106.844712,-6.284035],[106.844618,-6.284593],[106.844577,-6.284811],[106.844404,-6.285639],[106.844153,-6.286575],[106.843826,-6.287591],[106.842846,-6.290025],[106.842108,-6.291811],[106.841674,-6.292867],[106.841381,-6.293587],[106.841137,-6.294296],[106.840995,-6.294714],[106.840727,-6.295637],[106.84059,-6.296181],[106.84045,-6.296869],[106.840343,-6.29762],[106.8403,-6.298026],[106.84026,-6.298596],[106.840204,-6.299671],[106.84011,-6.300681],[106.840091,-6.300971],[106.840032,-6.301443],[106.839957,-6.301953],[106.839855,-6.302558],[106.839727,-6.303235],[106.839423,-6.305164],[106.838988,-6.307703],[106.838969,-6.307812]]}},
{"type":"Feature","properties":{"from":"KCI-TNT","to":"KCI-LNA","lines":["B"],"lengthM":2631},"geometry":{"type":"LineString","coordinates":[[106.838969,-6.307812],[106.838648,-6.309692],[106.838679,-6.309698],[106.83831,-6.311854],[106.837663,-6.315562],[106.837473,-6.31659],[106.837348,-6.317351],[106.837084,-6.318938],[106.836921,-6.319759],[106.836609,-6.320779],[106.836465,-6.321207],[106.836122,-6.321936],[106.835784,-6.322526],[106.834317,-6.324708],[106.834137,-6.325061],[106.83394,-6.325592],[106.83385,-6.325889],[106.833753,-6.326343],[106.833722,-6.326676],[106.833701,-6.327054],[106.833708,-6.327561],[106.833767,-6.328015],[106.833877,-6.328459],[106.833998,-6.32881],[106.834165,-6.329205],[106.834696,-6.330302]]}},
{"type":"Feature","properties":{"from":"KCI-LNA","to":"KCI-UP","lines":["B"],"lengthM":987},"geometry":{"type":"LineString","coordinates":[[106.834696,-6.330302],[106.834668,-6.330315],[106.834817,-6.330624],[106.834921,-6.330861],[106.834976,-6.330986],[106.835045,-6.331183],[106.835242,-6.331871],[106.835319,-6.332224],[106.835397,-6.332629],[106.835442,-6.332975],[106.835464,-6.33336],[106.835466,-6.33368],[106.835431,-6.334225],[106.835334,-6.334881],[106.834335,-6.338909]]}},
{"type":"Feature","properties":{"from":"KCI-UP","to":"KCI-UI","lines":["B"],"lengthM":2447},"geometry":{"type":"LineString","coordinates":[[106.834335,-6.338909],[106.834345,-6.339085],[106.833967,-6.340673],[106.833705,-6.341793],[106.833385,-6.343992],[106.833368,-6.344136],[106.832651,-6.349381],[106.832531,-6.350346],[106.831949,-6.354537],[106.83167,-6.356969],[106.831625,-6.357619],[106.831608,-6.35815],[106.831633,-6.358804],[106.831679,-6.359402],[106.831818,-6.360497],[106.831793,-6.36069]]}},
{"type":"Feature","properties":{"from":"KCI-UI","to":"KCI-POC","lines":["B"],"lengthM":895},"geometry":{"type":"LineString","coordinates":[[106.831793,-6.36069],[106.831861,-6.361301],[106.831935,-6.361829],[106.832131,-6.363182],[106.832283,-6.364265],[106.832313,-6.36448],[106.832356,-6.364875],[106.832447,-6.365632],[106.832489,-6.366365],[106.832471,-6.366942],[106.832409,-6.367581],[106.832296,-6.368251],[106.832256,-6.368432],[106.832226,-6.368677]]}},
{"type":"Feature","properties":{"from":"KCI-POC","to":"KCI-DPB","lines":["B"],"lengthM":2795},"geometry":{"type":"LineString","coordinates":[[106.832226,-6.368677],[106.832112,-6.368905],[106.832094,-6.368954],[106.831589,-6.3705],[106.831465,-6.370878],[106.831358,-6.371187],[106.831187,-6.371683],[106.83072,-6.373096],[106.83057,-6.373517],[106.83004,-6.375137],[106.829907,-6.375529],[106.829799,-6.375908],[106.828906,-6.37864],[106.828599,-6.379591],[106.828456,-6.379963],[106.828178,-6.380576],[106.827881,-6.381128],[106.827549,-6.381685],[106.827123,-6.382292],[106.826445,-6.383205],[106.826298,-6.383379],[106.825956,-6.38377],[106.824779,-6.385049],[106.824252,-6.385709],[106.823933,-6.386185],[106.823548,-6.38684],[106.823236,-6.387468],[106.822715,-6.388674],[106.822373,-6.38942],[106.821971,-6.390249],[106.821578,-6.391191]]}},
{"type":"Feature","properties":{"from":"KCI-DPB","to":"KCI-DP","lines":["B"],"lengthM":1589},"geometry":{"type":"LineString","coordinates":[[106.821578,-6.391191],[106.821211,-6.392071],[106.820777,-6.3931],[106.820428,-6.394065],[106.820185,-6.394732],[106.81946,-6.39645],[106.818892,-6.397854],[106.818633,-6.398579],[106.818308,-6.399607],[106.817877,-6.401012],[106.817668,-6.401747],[106.817504,-6.402312],[106.81739,-6.402817],[106.817008,-6.404702]]}},
{"type":"Feature","properties":{"from":"KCI-DP","to":"KCI-CTA","lines":["B"],"lengthM":5184},"geometry":{"type":"LineString","coordinates":[[106.817008,-6.404702],[106.816943,-6.405023],[106.816926,-6.405112],[106.81674,-6.406184],[106.816677,-6.406606],[106.816642,-6.406821],[106.816554,-6.407406],[106.816345,-6.408427],[106.816324,-6.408528],[106.816208,-6.4091],[106.816103,-6.409594],[106.816058,-6.409821],[106.815965,-6.410289],[106.815871,-6.410765],[106.815669,-6.411686],[106.8156,-6.412033],[106.815506,-6.412459],[106.815481,-6.412559],[106.815463,-6.412632],[106.815084,-6.414353],[106.814905,-6.415178],[106.814875,-6.415344],[106.814661,-6.416412],[106.814567,-6.416875],[106.8144,-6.417641],[106.814331,-6.417869],[106.814233,-6.418308],[106.814184,-6.418455],[106.813808,-6.419562],[106.81373,-6.419811],[106.813576,-6.420259],[106.81343,-6.420699],[106.81303,-6.4218],[106.81272,-6.422688],[106.812306,-6.423876],[106.812173,-6.424259],[106.812111,-6.424465],[106.811791,-6.425405],[106.811543,-6.426106],[106.811496,-6.426241],[106.811253,-6.42698],[106.811004,-6.427697],[106.8104,-6.429378],[106.809672,-6.431548],[106.808797,-6.434015],[106.808165,-6.435773],[106.807338,-6.437573],[106.80609,-6.440159],[106.80562,-6.441164],[106.804611,-6.443317],[106.803145,-6.446394],[106.802927,-6.446916],[106.802851,-6.447185],[106.802731,-6.447649],[106.802615,-6.448008],[106.802419,-6.448805]]}},
{"type":"Feature","properties":{"from":"KCI-CTA","to":"KCI-BJD","lines":["B"],"lengthM":5160},"geometry":{"type":"LineString","coordinates":[[106.802419,-6.448805],[106.80207,-6.450221],[106.802027,-6.450424],[106.802008,-6.450521],[106.801835,-6.451374],[106.801751,-6.451745],[106.80161,-6.452366],[106.801584,-6.452486],[106.801509,-6.4528],[106.801313,-6.453624],[106.801213,-6.454038],[106.80099,-6.455159],[106.800838,-6.456166],[106.800787,-6.456845],[106.800763,-6.457757],[106.800773,-6.458327],[106.800798,-6.458814],[106.80094,-6.459856],[106.801048,-6.460518],[106.801095,-6.460768],[106.801256,-6.461709],[106.802077,-6.46606],[106.802473,-6.468152],[106.802462,-6.468283],[106.802482,-6.468404],[106.802594,-6.469036],[106.802657,-6.469456],[106.802692,-6.469796],[106.802719,-6.470956],[106.802743,-6.472344],[106.802751,-6.473095],[106.802757,-6.473456],[106.802752,-6.475062],[106.802769,-6.476065],[106.802735,-6.476523],[106.802641,-6.477276],[106.802593,-6.477499],[106.802478,-6.478093],[106.80246,-6.478144],[106.802274,-6.478682],[106.802059,-6.479247],[106.801914,-6.479584],[106.801744,-6.479958],[106.80165,-6.480144],[106.801564,-6.480302],[106.801442,-6.480507],[106.801292,-6.480743],[106.801129,-6.480982],[106.800807,-6.481419],[106.800456,-6.481834],[106.800429,-6.481932],[106.800174,-6.482231],[106.797105,-6.485902],[106.796864,-6.486259],[106.796544,-6.486741],[106.796336,-6.487117],[106.796119,-6.487568],[106.796006,-6.487833],[106.795721,-6.488629],[106.795479,-6.489539],[106.795297,-6.490341],[106.795202,-6.490875],[106.795195,-6.490948],[106.795126,-6.491607],[106.795098,-6.491961],[106.795065,-6.492698]]}},
{"type":"Feature","properties":{"from":"KCI-BJD","to":"KCI-CLT","lines":["B"],"lengthM":4418},"geometry":{"type":"LineString","coordinates":[[106.795065,-6.492698],[106.795042,-6.493199],[106.795004,-6.494028],[106.79498,-6.494828],[106.794983,-6.495253],[106.794985,-6.495612],[106.795003,-6.496007],[106.795143,-6.49736],[106.795479,-6.500931],[106.795536,-6.501672],[106.795553,-6.501892],[106.795635,-6.502756],[106.795726,-6.504721],[106.795736,-6.505113],[106.795767,-6.505707],[106.795798,-6.506111],[106.795835,-6.506481],[106.795867,-6.506688],[106.796159,-6.508053],[106.796361,-6.508894],[106.796625,-6.510188],[106.796733,-6.510709],[106.796818,-6.511359],[106.796825,-6.511955],[106.796778,-6.512523],[106.796597,-6.513866],[106.796587,-6.514034],[106.796606,-6.514476],[106.796645,-6.514871],[106.796724,-6.515273],[106.796893,-6.515785],[106.797136,-6.516307],[106.797408,-6.516748],[106.797691,-6.517081],[106.798165,-6.517568],[106.799562,-6.519015],[106.799787,-6.51928],[106.799946,-6.519487],[106.800093,-6.519708],[106.800269,-6.519981],[106.800353,-6.520121],[106.800649,-6.520693],[106.800799,-6.521035],[106.800981,-6.52154],[106.801108,-6.522023],[106.801213,-6.522509],[106.801284,-6.523428],[106.801276,-6.523842],[106.8012,-6.524832],[106.801082,-6.526041],[106.800998,-6.526812],[106.80095,-6.527186],[106.800899,-6.527731],[106.800831,-6.52873],[106.800813,-6.529079],[106.800747,-6.529504],[106.800728,-6.529831],[106.800652,-6.530812]]}},
{"type":"Feature","properties":{"from":"KCI-CLT","to":"KCI-BOO","lines":["B"],"lengthM":7726},"geometry":{"type":"LineString","coordinates":[[106.800652,-6.530812],[106.800629,-6.531109],[106.800537,-6.531927],[106.800513,-6.532102],[106.800457,-6.532517],[106.800437,-6.532728],[106.800278,-6.534207],[106.800257,-6.534442],[106.800188,-6.535513],[106.800129,-6.536131],[106.800025,-6.537307],[106.799964,-6.538092],[106.799892,-6.538877],[106.799869,-6.539182],[106.79982,-6.539691],[106.799792,-6.540009],[106.799762,-6.540263],[106.799685,-6.541002],[106.799583,-6.541997],[106.799483,-6.543475],[106.799483,-6.543484],[106.799473,-6.543869],[106.799482,-6.544639],[106.799503,-6.545283],[106.79956,-6.545953],[106.799642,-6.546626],[106.799793,-6.547658],[106.799871,-6.548192],[106.799991,-6.548889],[106.80011,-6.549483],[106.800262,-6.550166],[106.800426,-6.550935],[106.800715,-6.552193],[106.8008,-6.552583],[106.800968,-6.553367],[106.801045,-6.553714],[106.80115,-6.554184],[106.80145,-6.55549],[106.801658,-6.556507],[106.801811,-6.557203],[106.801982,-6.557895],[106.802144,-6.558616],[106.80227,-6.559292],[106.802423,-6.559988],[106.802711,-6.561167],[106.802756,-6.561433],[106.802767,-6.56149],[106.802774,-6.56157],[106.802788,-6.561684],[106.802794,-6.561725],[106.802803,-6.561777],[106.802817,-6.561885],[106.802826,-6.562039],[106.802828,-6.562075],[106.802828,-6.562233],[106.802826,-6.562536],[106.802823,-6.562654],[106.802821,-6.56273],[106.802818,-6.562772],[106.802794,-6.56312],[106.802791,-6.563142],[106.80277,-6.563304],[106.80275,-6.563435],[106.80272,-6.563594],[106.802688,-6.563737],[106.802664,-6.563845],[106.802557,-6.564217],[106.802525,-6.564312],[106.802507,-6.564367],[106.80232,-6.564804],[106.80231,-6.564839],[106.802222,-6.565058],[106.802171,-6.565189],[106.802126,-6.5653],[106.80211,-6.56534],[106.802078,-6.565421],[106.80181,-6.566],[106.801745,-6.566174],[106.801678,-6.566324],[106.801551,-6.566609],[106.80134,-6.56705],[106.801277,-6.567161],[106.801055,-6.567554],[106.800793,-6.567959],[106.800547,-6.568236],[106.800331,-6.568505],[106.800142,-6.568702],[106.799942,-6.568905],[106.799681,-6.569136],[106.799425,-6.569318],[106.798992,-6.569627],[106.798655,-6.56984],[106.797888,-6.570314],[106.797621,-6.570506],[106.79705,-6.570867],[106.796718,-6.571076],[106.796376,-6.571293],[106.795884,-6.571623],[106.795596,-6.571841],[106.795393,-6.572006],[106.795164,-6.572184],[106.794951,-6.572395],[106.794489,-6.572918],[106.794087,-6.573442],[106.793951,-6.573619],[106.793873,-6.573742],[106.793803,-6.57387],[106.793445,-6.574578],[106.793285,-6.574938],[106.793158,-6.575267],[106.793068,-6.57558],[106.792943,-6.576068],[106.792845,-6.576569],[106.792807,-6.576881],[106.792775,-6.577376],[106.792775,-6.577856],[106.792798,-6.578167],[106.792839,-6.578478],[106.793041,-6.579836],[106.793223,-6.581051],[106.793362,-6.582047],[106.793368,-6.582119],[106.793379,-6.582575],[106.793368,-6.582838],[106.793333,-6.583385],[106.793266,-6.583819],[106.79322,-6.584099],[106.793169,-6.584285],[106.793135,-6.584402],[106.79308,-6.584589],[106.79303,-6.584758],[106.792209,-6.587596],[106.792014,-6.588247],[106.791857,-6.588731],[106.791549,-6.589731],[106.791371,-6.590327],[106.791284,-6.590638],[106.791274,-6.590676],[106.791251,-6.590762],[106.791125,-6.591247],[106.791054,-6.591615],[106.790983,-6.591926],[106.790937,-6.592129],[106.790906,-6.592254],[106.790871,-6.592443],[106.790807,-6.592817],[106.790751,-6.59324],[106.790634,-6.594274],[106.790571,-6.594868],[106.790562,-6.594983],[106.79056,-6.59511],[106.790567,-6.595466],[106.790572,-6.595593]]}},
{"type":"Feature","properties":{"from":"KCI-CTA","to":"KCI-PDRG","lines":["B"],"lengthM":3716},"geometry":{"type":"LineString","coordinates":[[106.802419,-6.448805],[106.80207,-6.450221],[106.802027,-6.450424],[106.802008,-6.450521],[106.801835,-6.451374],[106.801751,-6.451745],[106.80161,-6.452366],[106.801584,-6.452486],[106.801509,-6.4528],[106.801313,-6.453624],[106.801213,-6.454038],[106.801072,-6.455139],[106.801015,-6.45557],[106.800983,-6.455979],[106.800988,-6.45621],[106.801007,-6.456393],[106.801033,-6.45661],[106.801084,-6.456827],[106.801167,-6.457137],[106.801327,-6.457555],[106.801526,-6.457939],[106.801759,-6.45833],[106.801857,-6.45846],[106.801999,-6.458628],[106.802473,-6.459132],[106.803339,-6.459903],[106.804012,-6.460441],[106.804051,-6.460472],[106.804753,-6.460959],[106.806282,-6.461671],[106.806392,-6.461703],[106.807284,-6.461932],[106.807498,-6.461967],[106.808174,-6.462072],[106.80904,-6.462076],[106.810405,-6.462009],[106.812311,-6.461872],[106.814017,-6.461788],[106.814686,-6.461748],[106.816509,-6.461543],[106.817286,-6.461442],[106.820662,-6.461085],[106.823363,-6.460785],[106.8242,-6.460697]]}},
{"type":"Feature","properties":{"from":"KCI-PDRG","to":"KCI-CBN","lines":["B"],"lengthM":3201},"geometry":{"type":"LineString","coordinates":[[106.8242,-6.460697],[106.824284,-6.460689],[106.824605,-6.460655],[106.825118,-6.460603],[106.825644,-6.460569],[106.825734,-6.460571],[106.826416,-6.460593],[106.827011,-6.460652],[106.827519,-6.460745],[106.829228,-6.461122],[106.832583,-6.461886],[106.83662,-6.462782],[106.836961,-6.462858],[106.842304,-6.46407],[106.842606,-6.464143],[106.845896,-6.464871],[106.846436,-6.46494],[106.846596,-6.464948],[106.847088,-6.46495],[106.847478,-6.464912],[106.848579,-6.464754],[106.850562,-6.464422],[106.852042,-6.464187],[106.852615,-6.464094]]}},
{"type":"Feature","properties":{"from":"KCI-CBN","to":"KCI-NMO","lines":["B"],"lengthM":6406},"geometry":{"type":"LineString","coordinates":[[106.852615,-6.464094],[106.853341,-6.463978],[106.853925,-6.463884],[106.854407,-6.463807],[106.85476,-6.463765],[106.855209,-6.463742],[106.855648,-6.463753],[106.856454,-6.463819],[106.857759,-6.463926],[106.858572,-6.464004],[106.859073,-6.464074],[106.862258,-6.464678],[106.863937,-6.464969],[106.864669,-6.46511],[106.865736,-6.465307],[106.867847,-6.465712],[106.868818,-6.465864],[106.872576,-6.466547],[106.873361,-6.466663],[106.875312,-6.466942],[106.876758,-6.46714],[106.878123,-6.467338],[106.878813,-6.467514],[106.879238,-6.467655],[106.880801,-6.468273],[106.881581,-6.468581],[106.88403,-6.469527],[106.884812,-6.469842],[106.885369,-6.4701],[106.887117,-6.471027],[106.891626,-6.473436],[106.892479,-6.473837],[106.893497,-6.474001],[106.894184,-6.474021],[106.894721,-6.473977],[106.895239,-6.47387],[106.895736,-6.473711],[106.896273,-6.473464],[106.896727,-6.473201],[106.897282,-6.472772],[106.897769,-6.472295],[106.899254,-6.470703],[106.899872,-6.470043],[106.900343,-6.469622],[106.900709,-6.469351],[106.901168,-6.469071],[106.902682,-6.468277],[106.903167,-6.468074],[106.906326,-6.466441]]}},
{"type":"Feature","properties":{"from":"KCI-THB","to":"KCI-PLM","lines":["R"],"lengthM":3206},"geometry":{"type":"LineString","coordinates":[[106.810712,-6.185699],[106.810736,-6.185936],[106.810794,-6.186527],[106.81082,-6.186743],[106.810862,-6.186959],[106.810898,-6.187126],[106.810966,-6.187655],[106.810993,-6.187968],[106.811009,-6.188236],[106.811003,-6.188497],[106.810974,-6.188822],[106.810918,-6.189149],[106.810835,-6.189602],[106.810277,-6.191636],[106.810097,-6.19231],[106.810041,-6.192558],[106.81,-6.192846],[106.809975,-6.193094],[106.809962,-6.193337],[106.809984,-6.193791],[106.810043,-6.194219],[106.810338,-6.195531],[106.810412,-6.195952],[106.810448,-6.19621],[106.810454,-6.196555],[106.810421,-6.196866],[106.810382,-6.197067],[106.810307,-6.197328],[106.810187,-6.197621],[106.810086,-6.197808],[106.81002,-6.197919],[106.809997,-6.197952],[106.809771,-6.198241],[106.809716,-6.198305],[106.809583,-6.198479],[106.809279,-6.198823],[106.808746,-6.199467],[106.808332,-6.199948],[106.807949,-6.200388],[106.8078,-6.200536],[106.807633,-6.20069],[106.807519,-6.200788],[106.807377,-6.200895],[106.807229,-6.201002],[106.807082,-6.2011],[106.806733,-6.201302],[106.806309,-6.20149],[106.806001,-6.201642],[106.805284,-6.201974],[106.804427,-6.202364],[106.803954,-6.20258],[106.80337,-6.202846],[106.802539,-6.20323],[106.802228,-6.20337],[106.801734,-6.203595],[106.801323,-6.203802],[106.800491,-6.204185],[106.799392,-6.204696],[106.79922,-6.204784],[106.798955,-6.204949],[106.798775,-6.205097],[106.798626,-6.205243],[106.798448,-6.205456],[106.798324,-6.205629],[106.798202,-6.205827],[106.798115,-6.205993],[106.797403,-6.207547]]}},
{"type":"Feature","properties":{"from":"KCI-PLM","to":"KCI-KBY","lines":["R"],"lengthM":3746},"geometry":{"type":"LineString","coordinates":[[106.797403,-6.207547],[106.797232,-6.20792],[106.797106,-6.208202],[106.796555,-6.20942],[106.796453,-6.209631],[106.796331,-6.209922],[106.796233,-6.210167],[106.796153,-6.210447],[106.796119,-6.210671],[106.7961,-6.210869],[106.796098,-6.211132],[106.796118,-6.211627],[106.796138,-6.212093],[106.796159,-6.212376],[106.79616,-6.212537],[106.796139,-6.212764],[106.796104,-6.213014],[106.796042,-6.213266],[106.795958,-6.213506],[106.795826,-6.213756],[106.795636,-6.214046],[106.79557,-6.214131],[106.795471,-6.214257],[106.795209,-6.214514],[106.794615,-6.215041],[106.794391,-6.215246],[106.794155,-6.215467],[106.793847,-6.215788],[106.793626,-6.216041],[106.793471,-6.216234],[106.793369,-6.216364],[106.793254,-6.216494],[106.793051,-6.216776],[106.792909,-6.216991],[106.792761,-6.217229],[106.792612,-6.217479],[106.792484,-6.217697],[106.792334,-6.217978],[106.792164,-6.218393],[106.791975,-6.218841],[106.791444,-6.220139],[106.790719,-6.22186],[106.790506,-6.222364],[106.790301,-6.222859],[106.790096,-6.223334],[106.789947,-6.223674],[106.789806,-6.223987],[106.789629,-6.224341],[106.789215,-6.225049],[106.788749,-6.225853],[106.788485,-6.226313],[106.787695,-6.22763],[106.787528,-6.227914],[106.787256,-6.228357],[106.786301,-6.230024],[106.785991,-6.230552],[106.785728,-6.230984],[106.785611,-6.231175],[106.784732,-6.232643],[106.784449,-6.233118],[106.78349,-6.234751],[106.783274,-6.235136],[106.783188,-6.23532],[106.782998,-6.23579],[106.782659,-6.23675],[106.782491,-6.237231]]}},
{"type":"Feature","properties":{"from":"KCI-KBY","to":"KCI-PDJ","lines":["R"],"lengthM":6212},"geometry":{"type":"LineString","coordinates":[[106.782491,-6.237231],[106.782289,-6.237809],[106.78228,-6.237842],[106.781837,-6.239138],[106.781677,-6.239515],[106.781531,-6.239833],[106.781444,-6.239991],[106.781282,-6.240266],[106.781175,-6.240429],[106.781052,-6.240612],[106.780801,-6.24095],[106.780733,-6.241035],[106.78042,-6.24142],[106.780108,-6.241791],[106.779907,-6.242024],[106.77977,-6.242189],[106.779477,-6.242544],[106.779193,-6.242862],[106.778838,-6.243284],[106.778537,-6.243655],[106.778146,-6.244116],[106.777813,-6.24451],[106.77756,-6.244813],[106.77723,-6.245203],[106.776895,-6.245603],[106.776016,-6.246646],[106.774966,-6.247884],[106.774261,-6.248728],[106.77406,-6.248953],[106.773895,-6.249164],[106.773484,-6.249629],[106.773177,-6.249957],[106.773031,-6.250125],[106.772799,-6.25036],[106.77244,-6.250708],[106.772139,-6.250988],[106.771931,-6.251176],[106.771485,-6.251565],[106.770676,-6.25223],[106.770302,-6.252509],[106.769792,-6.25291],[106.769609,-6.25306],[106.769233,-6.253355],[106.769049,-6.253502],[106.768811,-6.253677],[106.768571,-6.253829],[106.768377,-6.253934],[106.768159,-6.254036],[106.767783,-6.254182],[106.767459,-6.254305],[106.766685,-6.254602],[106.766285,-6.254789],[106.76601,-6.254915],[106.765708,-6.255061],[106.765216,-6.255305],[106.764546,-6.255653],[106.763921,-6.256],[106.763261,-6.256396],[106.762995,-6.256578],[106.762752,-6.256769],[106.762537,-6.256999],[106.762368,-6.257212],[106.762175,-6.257528],[106.762073,-6.257723],[106.76194,-6.25806],[106.761859,-6.258326],[106.76153,-6.259628],[106.761443,-6.259991],[106.761324,-6.260495],[106.761233,-6.260862],[106.761177,-6.261065],[106.761078,-6.261348],[106.761023,-6.261484],[106.760909,-6.261715],[106.760692,-6.262085],[106.760434,-6.262457],[106.760297,-6.262633],[106.76012,-6.262825],[106.76,-6.262947],[106.759808,-6.26312],[106.759567,-6.263307],[106.759316,-6.263485],[106.758901,-6.263762],[106.758387,-6.264116],[106.757768,-6.264551],[106.757536,-6.264715],[106.757218,-6.264926],[106.756908,-6.265147],[106.756831,-6.265212],[106.756583,-6.265443],[106.756021,-6.266011],[106.755718,-6.266314],[106.755149,-6.266894],[106.754773,-6.267274],[106.75444,-6.267624],[106.754338,-6.267726],[106.754278,-6.267787],[106.75418,-6.267885],[106.753763,-6.268307],[106.753452,-6.268615],[106.753151,-6.268941],[106.752804,-6.269283],[106.752548,-6.26956],[106.752155,-6.269967],[106.75172,-6.270409],[106.751386,-6.270744],[106.751007,-6.271146],[106.750638,-6.271524],[106.750448,-6.271718],[106.750228,-6.271949],[106.750084,-6.2721],[106.749746,-6.272458],[106.749512,-6.272692],[106.749138,-6.273046],[106.748748,-6.273407],[106.748215,-6.273887],[106.747762,-6.274247],[106.747306,-6.274622],[106.746929,-6.274926],[106.746417,-6.275334],[106.745728,-6.275878],[106.745565,-6.276006],[106.745428,-6.276106],[106.745183,-6.276306],[106.744671,-6.276713]]}},
{"type":"Feature","properties":{"from":"KCI-PDJ","to":"KCI-JMU","lines":["R"],"lengthM":2188},"geometry":{"type":"LineString","coordinates":[[106.744671,-6.276713],[106.743565,-6.277592],[106.742188,-6.278689],[106.741797,-6.278995],[106.740882,-6.279753],[106.74065,-6.27994],[106.740022,-6.280432],[106.73898,-6.281259],[106.738384,-6.281742],[106.73742,-6.282519],[106.736349,-6.283393],[106.735409,-6.284138],[106.734753,-6.284626],[106.73429,-6.284948],[106.733999,-6.285147],[106.733064,-6.285801],[106.732429,-6.28626],[106.731972,-6.286583],[106.73167,-6.2868],[106.731198,-6.287113],[106.731124,-6.287165],[106.731107,-6.287233],[106.729766,-6.288183],[106.729575,-6.288321],[106.729262,-6.288528],[106.729007,-6.28871]]}},
{"type":"Feature","properties":{"from":"KCI-JMU","to":"KCI-SDM","lines":["R"],"lengthM":2066},"geometry":{"type":"LineString","coordinates":[[106.729007,-6.28871],[106.727355,-6.289892],[106.726962,-6.290167],[106.726787,-6.290273],[106.726569,-6.290386],[106.726171,-6.290565],[106.725963,-6.290636],[106.725748,-6.290698],[106.725473,-6.29077],[106.725091,-6.290835],[106.72417,-6.290958],[106.723827,-6.291009],[106.723543,-6.291079],[106.723244,-6.291175],[106.722983,-6.29126],[106.722722,-6.29137],[106.72238,-6.29154],[106.72213,-6.291687],[106.721938,-6.291832],[106.721765,-6.291971],[106.721618,-6.292105],[106.721206,-6.292522],[106.720804,-6.292925],[106.720673,-6.293063],[106.720472,-6.293245],[106.720281,-6.293411],[106.720157,-6.293512],[106.720038,-6.293599],[106.71991,-6.29369],[106.719726,-6.293816],[106.719617,-6.293886],[106.719453,-6.293987],[106.719281,-6.294083],[106.719071,-6.294186],[106.718874,-6.294272],[106.718657,-6.294361],[106.718468,-6.29443],[106.717816,-6.294604],[106.71685,-6.294818],[106.716432,-6.294913],[106.715963,-6.29505],[106.715637,-6.295175],[106.71533,-6.295333],[106.714911,-6.295584],[106.713736,-6.296251],[106.712785,-6.29679],[106.712598,-6.296896]]}},
{"type":"Feature","properties":{"from":"KCI-SDM","to":"KCI-RU","lines":["R"],"lengthM":4516},"geometry":{"type":"LineString","coordinates":[[106.712598,-6.296896],[106.711882,-6.297301],[106.71142,-6.29756],[106.711066,-6.297767],[106.709559,-6.298617],[106.708454,-6.299235],[106.707339,-6.299865],[106.703778,-6.301868],[106.702556,-6.302617],[106.700732,-6.303737],[106.700288,-6.304],[106.700111,-6.304096],[106.699919,-6.304188],[106.699032,-6.304597],[106.698608,-6.30479],[106.697483,-6.30527],[106.694329,-6.306713],[106.69404,-6.306842],[106.69268,-6.307469],[106.690912,-6.308261],[106.690742,-6.308332],[106.69054,-6.308411],[106.69022,-6.308531],[106.687436,-6.309415],[106.686281,-6.309777],[106.683186,-6.310772],[106.681856,-6.311232],[106.681272,-6.311495],[106.681023,-6.311625],[106.680686,-6.311812],[106.680376,-6.311997],[106.680069,-6.312198],[106.67952,-6.312601],[106.678974,-6.313026],[106.678294,-6.313588],[106.678104,-6.313735],[106.677887,-6.313892],[106.677385,-6.314205],[106.677249,-6.314283],[106.676784,-6.31455],[106.676192,-6.314887]]}},
{"type":"Feature","properties":{"from":"KCI-RU","to":"KCI-SRP","lines":["R"],"lengthM":1409},"geometry":{"type":"LineString","coordinates":[[106.676192,-6.314887],[106.676091,-6.314906],[106.675047,-6.315506],[106.67424,-6.315958],[106.673201,-6.316516],[106.672741,-6.31678],[106.672472,-6.316943],[106.672141,-6.317182],[106.671988,-6.317308],[106.671807,-6.317483],[106.67171,-6.317587],[106.671582,-6.317735],[106.671491,-6.317847],[106.671288,-6.318152],[106.670852,-6.318771],[106.670628,-6.319077],[106.670471,-6.319233],[106.670407,-6.319305],[106.670116,-6.319545],[106.669827,-6.319726],[106.669467,-6.319901],[106.669147,-6.320011],[106.668895,-6.320075],[106.668676,-6.320114],[106.668419,-6.32013],[106.668032,-6.320135],[106.667483,-6.320137],[106.667427,-6.320137],[106.666708,-6.320135],[106.665713,-6.32014],[106.665477,-6.320142],[106.665301,-6.320143]]}},
{"type":"Feature","properties":{"from":"KCI-SRP","to":"KCI-CSK","lines":["R"],"lengthM":2755},"geometry":{"type":"LineString","coordinates":[[106.665301,-6.320143],[106.664746,-6.320146],[106.664186,-6.320159],[106.663547,-6.320159],[106.663024,-6.320156],[106.662312,-6.320194],[106.661297,-6.320186],[106.661,-6.320202],[106.660683,-6.320219],[106.660302,-6.320294],[106.660137,-6.320341],[106.659834,-6.320446],[106.659537,-6.320594],[106.659231,-6.320757],[106.657895,-6.321622],[106.657348,-6.321988],[106.656973,-6.322196],[106.656597,-6.322381],[106.656325,-6.322492],[106.65606,-6.322585],[106.655807,-6.322661],[106.655472,-6.322739],[106.655156,-6.322792],[106.654864,-6.322821],[106.651654,-6.322982],[106.649548,-6.323095],[106.648255,-6.323158],[106.64608,-6.323263],[106.644307,-6.323356],[106.644096,-6.323385],[106.643985,-6.323401],[106.643803,-6.323442],[106.643455,-6.323564],[106.643103,-6.323723],[106.64278,-6.323883],[106.642465,-6.324032],[106.641777,-6.32438],[106.641668,-6.324437],[106.641517,-6.324515],[106.641299,-6.324591]]}},
{"type":"Feature","properties":{"from":"KCI-CSK","to":"KCI-CC","lines":["R"],"lengthM":2612},"geometry":{"type":"LineString","coordinates":[[106.641299,-6.324591],[106.640591,-6.324954],[106.640183,-6.325162],[106.639731,-6.325392],[106.639448,-6.32551],[106.639203,-6.325593],[106.639051,-6.325636],[106.638761,-6.325706],[106.638572,-6.325737],[106.638302,-6.325773],[106.638135,-6.325786],[106.637943,-6.325798],[106.637575,-6.325803],[106.636874,-6.32586],[106.635841,-6.325889],[106.631746,-6.326005],[106.63138,-6.326018],[106.631208,-6.326033],[106.630929,-6.326073],[106.630714,-6.326119],[106.63041,-6.326221],[106.630263,-6.326277],[106.630102,-6.326353],[106.629897,-6.326477],[106.629659,-6.326656],[106.629472,-6.326824],[106.628971,-6.327266],[106.628809,-6.327403],[106.628601,-6.327556],[106.628388,-6.327691],[106.62815,-6.327809],[106.627953,-6.327888],[106.627703,-6.327964],[106.627525,-6.328005],[106.625956,-6.328354],[106.625502,-6.328448],[106.625154,-6.328503],[106.621078,-6.329067],[106.620619,-6.329134],[106.620259,-6.329216],[106.620189,-6.329233],[106.619729,-6.32939],[106.618923,-6.329715],[106.618707,-6.329766]]}},
{"type":"Feature","properties":{"from":"KCI-CC","to":"KCI-JTK","lines":["R"],"lengthM":1463},"geometry":{"type":"LineString","coordinates":[[106.618707,-6.329766],[106.618165,-6.329981],[106.618016,-6.330039],[106.617388,-6.330286],[106.616851,-6.3305],[106.616651,-6.330584],[106.616442,-6.330681],[106.616178,-6.330822],[106.615964,-6.33095],[106.615743,-6.331112],[106.615508,-6.331309],[106.614478,-6.332187],[106.614214,-6.332408],[106.614041,-6.332553],[106.613731,-6.332778],[106.613404,-6.332996],[106.613012,-6.333242],[106.612933,-6.333283],[106.612663,-6.33342],[106.612331,-6.333568],[106.612068,-6.333679],[106.611745,-6.333796],[106.611474,-6.33388],[106.611425,-6.333896],[106.611195,-6.333967],[106.610845,-6.334063],[106.610445,-6.334155],[106.609945,-6.334252],[106.609415,-6.334368],[106.608399,-6.334588],[106.607722,-6.334731],[106.607355,-6.334809],[106.606772,-6.334933]]}},
{"type":"Feature","properties":{"from":"KCI-JTK","to":"KCI-PRP","lines":["R"],"lengthM":4314},"geometry":{"type":"LineString","coordinates":[[106.606772,-6.334933],[106.605557,-6.335192],[106.605209,-6.335266],[106.604161,-6.335493],[106.6026,-6.335829],[106.602147,-6.335927],[106.601392,-6.336091],[106.600064,-6.336387],[106.599922,-6.336417],[106.598951,-6.336628],[106.598014,-6.336824],[106.597617,-6.336906],[106.596447,-6.337161],[106.595038,-6.337463],[106.594156,-6.337655],[106.592199,-6.338059],[106.591747,-6.338154],[106.591498,-6.338221],[106.591176,-6.338318],[106.590629,-6.338496],[106.590211,-6.338675],[106.590154,-6.338702],[106.589806,-6.338861],[106.589327,-6.339072],[106.588491,-6.339461],[106.587414,-6.339955],[106.586157,-6.340523],[106.585266,-6.340936],[106.584794,-6.341153],[106.583902,-6.341549],[106.583561,-6.341702],[106.583145,-6.341897],[106.582712,-6.342096],[106.582512,-6.3422],[106.582202,-6.342386],[106.581962,-6.342567],[106.581802,-6.342715],[106.581457,-6.343077],[106.581388,-6.343164],[106.581032,-6.343581],[106.580806,-6.343807],[106.580664,-6.34394],[106.580489,-6.344088],[106.580244,-6.344266],[106.580047,-6.344384],[106.579827,-6.344495],[106.57952,-6.344619],[106.579238,-6.344704],[106.578909,-6.344773],[106.578576,-6.344801],[106.578272,-6.344799],[106.577909,-6.344788],[106.576723,-6.344708],[106.575366,-6.344625],[106.574332,-6.34457],[106.573344,-6.344525],[106.571591,-6.344432],[106.571535,-6.344429],[106.569892,-6.344325]]}},
{"type":"Feature","properties":{"from":"KCI-PRP","to":"KCI-CJT","lines":["R"],"lengthM":7177},"geometry":{"type":"LineString","coordinates":[[106.569892,-6.344325],[106.569358,-6.344291],[106.568689,-6.344251],[106.568592,-6.344245],[106.568153,-6.344219],[106.566968,-6.344146],[106.566375,-6.344108],[106.566019,-6.344087],[106.565752,-6.344064],[106.565234,-6.344036],[106.565093,-6.344028],[106.564711,-6.344018],[106.564388,-6.344015],[106.564205,-6.344017],[106.563891,-6.344034],[106.56377,-6.344052],[106.563512,-6.344081],[106.563269,-6.344124],[106.562899,-6.34419],[106.562701,-6.344238],[106.562491,-6.344294],[106.56222,-6.344367],[106.562039,-6.34442],[106.561843,-6.344487],[106.561629,-6.344564],[106.561429,-6.344642],[106.561169,-6.344754],[106.560554,-6.345045],[106.55967,-6.345466],[106.559133,-6.345718],[106.559037,-6.345763],[106.557922,-6.346303],[106.557443,-6.346537],[106.556667,-6.346902],[106.555959,-6.347246],[106.555408,-6.347517],[106.554161,-6.348108],[106.553578,-6.348381],[106.553216,-6.348554],[106.552532,-6.348876],[106.552332,-6.348973],[106.552221,-6.349028],[106.552217,-6.34903],[106.551877,-6.349198],[106.551374,-6.349447],[106.550382,-6.34992],[106.549058,-6.350544],[106.548263,-6.350895],[106.548074,-6.350967],[106.547862,-6.351046],[106.547585,-6.351124],[106.547462,-6.351154],[106.547222,-6.351195],[106.546827,-6.351243],[106.546778,-6.351247],[106.546405,-6.351257],[106.546184,-6.351244],[106.546066,-6.351236],[106.545593,-6.351173],[106.545339,-6.35114],[106.545113,-6.351124],[106.54482,-6.351115],[106.544623,-6.351123],[106.544313,-6.351145],[106.544045,-6.351199],[106.543755,-6.351272],[106.54345,-6.351392],[106.543137,-6.351548],[106.542858,-6.351717],[106.542357,-6.352072],[106.541309,-6.35283],[106.540594,-6.353348],[106.540576,-6.353361],[106.540206,-6.353629],[106.540047,-6.353743],[106.53962,-6.354051],[106.539436,-6.35419],[106.539253,-6.354308],[106.539074,-6.354422],[106.53884,-6.354538],[106.538547,-6.354659],[106.538252,-6.354748],[106.538004,-6.354802],[106.537719,-6.354851],[106.537415,-6.354869],[106.537092,-6.354867],[106.536671,-6.354837],[106.535723,-6.354802],[106.535454,-6.354791],[106.535279,-6.354789],[106.534926,-6.354792],[106.534622,-6.35482],[106.534465,-6.354846],[106.534194,-6.354916],[106.53387,-6.355019],[106.533644,-6.355105],[106.533286,-6.355229],[106.532608,-6.355487],[106.531848,-6.355775],[106.531203,-6.356017],[106.529631,-6.356613],[106.529268,-6.356737],[106.529159,-6.356773],[106.529031,-6.356816],[106.528746,-6.356885],[106.528505,-6.35694],[106.528189,-6.356989],[106.52792,-6.357008],[106.527632,-6.357014],[106.527458,-6.357005],[106.52723,-6.356986],[106.526946,-6.356946],[106.526689,-6.356902],[106.526478,-6.356855],[106.526255,-6.356783],[106.526,-6.356686],[106.525685,-6.356544],[106.525144,-6.35628],[106.524898,-6.356164],[106.524757,-6.356092],[106.524401,-6.35593],[106.524215,-6.355847],[106.524027,-6.355774],[106.523871,-6.355719],[106.52369,-6.355668],[106.523512,-6.355633],[106.523314,-6.35561],[106.523095,-6.355578],[106.522861,-6.355565],[106.522639,-6.355572],[106.522446,-6.355582],[106.522177,-6.355622],[106.521955,-6.355674],[106.521299,-6.355829],[106.521111,-6.355867],[106.52094,-6.355898],[106.520792,-6.355914],[106.520619,-6.355927],[106.520467,-6.355919],[106.520305,-6.355896],[106.520119,-6.355854],[106.519908,-6.355772],[106.519697,-6.355652],[106.519527,-6.355527],[106.519362,-6.355377],[106.518926,-6.354941],[106.518859,-6.354991],[106.518599,-6.35474],[106.518435,-6.354587],[106.518292,-6.354467],[106.518139,-6.354352],[106.517997,-6.354272],[106.517829,-6.354188],[106.51755,-6.354076],[106.517344,-6.354011],[106.517162,-6.353968],[106.516948,-6.353937],[106.516696,-6.353932],[106.516509,-6.353941],[106.516103,-6.353969],[106.515679,-6.354003],[106.515363,-6.354029],[106.515158,-6.354049],[106.51488,-6.354093],[106.514656,-6.354153],[106.514436,-6.354223],[106.51409,-6.354366],[106.513866,-6.354475],[106.513198,-6.354865],[106.512865,-6.355055],[106.512716,-6.355133],[106.51257,-6.355189],[106.512442,-6.35524],[106.512289,-6.35528],[106.512104,-6.355306],[106.511938,-6.355319],[106.511792,-6.355319],[106.511661,-6.355311],[106.51144,-6.355278],[106.511342,-6.355259],[106.511178,-6.355209],[106.511031,-6.355153],[106.510928,-6.355103],[106.510822,-6.355044],[106.510505,-6.354845],[106.50955,-6.354224]]}},
{"type":"Feature","properties":{"from":"KCI-CJT","to":"KCI-DAR","lines":["R"],"lengthM":2686},"geometry":{"type":"LineString","coordinates":[[106.50955,-6.354224],[106.509038,-6.353891],[106.508739,-6.353688],[106.508556,-6.353539],[106.508434,-6.353424],[106.50829,-6.353255],[106.508163,-6.35308],[106.508094,-6.352955],[106.508012,-6.352809],[106.507746,-6.352259],[106.507283,-6.351323],[106.507135,-6.351069],[106.506968,-6.350817],[106.506725,-6.350502],[106.506476,-6.350228],[106.506344,-6.350096],[106.505831,-6.34959],[106.504612,-6.34839],[106.504258,-6.348038],[106.503588,-6.347372],[106.503027,-6.34681],[106.502626,-6.346417],[106.502366,-6.346177],[106.502132,-6.345969],[106.501921,-6.345796],[106.501619,-6.345587],[106.501517,-6.34552],[106.501416,-6.345454],[106.501231,-6.345346],[106.501039,-6.345235],[106.50069,-6.345042],[106.500351,-6.344871],[106.499646,-6.344521],[106.498175,-6.343805],[106.496894,-6.343181],[106.496176,-6.342837],[106.495755,-6.342618],[106.495593,-6.342526],[106.495364,-6.342376],[106.495199,-6.342253],[106.494967,-6.342064],[106.494818,-6.341923],[106.494584,-6.341676],[106.49432,-6.34136],[106.494143,-6.3411],[106.494023,-6.340897],[106.493718,-6.340316],[106.492956,-6.338796],[106.492523,-6.337939]]}},
{"type":"Feature","properties":{"from":"KCI-DAR","to":"KCI-TEJ","lines":["R"],"lengthM":3838},"geometry":{"type":"LineString","coordinates":[[106.492523,-6.337939],[106.491519,-6.335954],[106.491175,-6.335278],[106.491089,-6.335118],[106.490972,-6.334925],[106.490893,-6.334813],[106.490772,-6.334655],[106.490583,-6.334449],[106.490422,-6.334298],[106.49023,-6.334143],[106.489994,-6.333987],[106.489688,-6.333833],[106.489472,-6.333746],[106.489258,-6.333675],[106.488999,-6.333608],[106.488775,-6.333572],[106.488552,-6.333551],[106.488334,-6.333544],[106.488077,-6.33356],[106.487852,-6.333584],[106.487615,-6.333634],[106.48738,-6.333696],[106.486711,-6.333932],[106.486249,-6.3341],[106.485894,-6.334227],[106.485622,-6.334315],[106.485473,-6.334353],[106.485215,-6.334411],[106.484902,-6.334453],[106.484645,-6.334472],[106.484342,-6.334472],[106.484059,-6.334455],[106.48385,-6.334432],[106.48357,-6.334389],[106.483303,-6.334329],[106.482946,-6.334224],[106.482641,-6.334118],[106.482371,-6.334021],[106.481938,-6.333863],[106.480574,-6.33336],[106.476497,-6.331889],[106.476475,-6.331877],[106.475617,-6.33158],[106.475305,-6.331464],[106.47502,-6.331345],[106.474729,-6.331214],[106.474602,-6.331146],[106.474412,-6.331046],[106.473009,-6.330297],[106.47273,-6.330157],[106.4725,-6.330045],[106.472297,-6.329953],[106.47211,-6.329878],[106.47189,-6.329803],[106.471877,-6.3298],[106.471703,-6.329753],[106.471468,-6.329697],[106.471244,-6.329653],[106.470945,-6.329595],[106.470658,-6.329552],[106.468875,-6.329268],[106.468465,-6.329206],[106.467906,-6.329118],[106.467406,-6.329021],[106.465225,-6.328658],[106.464798,-6.32861],[106.464493,-6.32856],[106.464184,-6.328499],[106.46393,-6.328423],[106.463643,-6.328307],[106.463427,-6.328208],[106.463046,-6.328022],[106.462397,-6.327706],[106.462044,-6.327527],[106.461725,-6.327368],[106.461558,-6.327285]]}},
{"type":"Feature","properties":{"from":"KCI-TEJ","to":"KCI-TGS","lines":["R"],"lengthM":3106},"geometry":{"type":"LineString","coordinates":[[106.461558,-6.327285],[106.461324,-6.327168],[106.460799,-6.326917],[106.460672,-6.326851],[106.460522,-6.326782],[106.46031,-6.326687],[106.460025,-6.326591],[106.459802,-6.32654],[106.459608,-6.326508],[106.459461,-6.326491],[106.4592,-6.326488],[106.458983,-6.326496],[106.45804,-6.326564],[106.456619,-6.326666],[106.455113,-6.326775],[106.453672,-6.326875],[106.452973,-6.326916],[106.452621,-6.326919],[106.452012,-6.326913],[106.451108,-6.326915],[106.451053,-6.326915],[106.44975,-6.326907],[106.44795,-6.326889],[106.445483,-6.326906],[106.445158,-6.326904],[106.440302,-6.326847],[106.439583,-6.326917],[106.439175,-6.326985],[106.438851,-6.327053],[106.43848,-6.327145],[106.438148,-6.327243],[106.437926,-6.32731],[106.437726,-6.327386],[106.436969,-6.327692],[106.436616,-6.327837],[106.436578,-6.327852],[106.435857,-6.328147],[106.435089,-6.328449],[106.434629,-6.328635],[106.433998,-6.328894]]}},
{"type":"Feature","properties":{"from":"KCI-TGS","to":"KCI-CKY","lines":["R"],"lengthM":2618},"geometry":{"type":"LineString","coordinates":[[106.433998,-6.328894],[106.433023,-6.329294],[106.432344,-6.329574],[106.431766,-6.329811],[106.431692,-6.329793],[106.430769,-6.330164],[106.430439,-6.330304],[106.429832,-6.330562],[106.428905,-6.330934],[106.427437,-6.331528],[106.426224,-6.332019],[106.424366,-6.33277],[106.422713,-6.333433],[106.422132,-6.333694],[106.42155,-6.333936],[106.420951,-6.334191],[106.420621,-6.334318],[106.420081,-6.334486],[106.419603,-6.334613],[106.419227,-6.334694],[106.418798,-6.334772],[106.418422,-6.334833],[106.417942,-6.334896],[106.416523,-6.335084],[106.415396,-6.335234],[106.414268,-6.335379],[106.412802,-6.33558],[106.412535,-6.335617],[106.411518,-6.335744]]}},
{"type":"Feature","properties":{"from":"KCI-CKY","to":"KCI-MJ","lines":["R"],"lengthM":1758},"geometry":{"type":"LineString","coordinates":[[106.411518,-6.335744],[106.410738,-6.335841],[106.408785,-6.336102],[106.408249,-6.336175],[106.407522,-6.336272],[106.407172,-6.336307],[106.406823,-6.336316],[106.406516,-6.336312],[106.406157,-6.336284],[106.405758,-6.336211],[106.405552,-6.336158],[106.405195,-6.336042],[106.404816,-6.335886],[106.404128,-6.335596],[106.403551,-6.335365],[106.402617,-6.334987],[106.400819,-6.334255],[106.399984,-6.333923],[106.399235,-6.33361],[106.398015,-6.333107],[106.3964,-6.332438]]}},
{"type":"Feature","properties":{"from":"KCI-MJ","to":"KCI-CTR","lines":["R"],"lengthM":7365},"geometry":{"type":"LineString","coordinates":[[106.3964,-6.332438],[106.394932,-6.33183],[106.39466,-6.331715],[106.394563,-6.331674],[106.393669,-6.331293],[106.39345,-6.331199],[106.392371,-6.330738],[106.392064,-6.330606],[106.391834,-6.330508],[106.390793,-6.33009],[106.390161,-6.329828],[106.38962,-6.329695],[106.389153,-6.329634],[106.388901,-6.329618],[106.388409,-6.329616],[106.380789,-6.330236],[106.380383,-6.330267],[106.376962,-6.330588],[106.376353,-6.330656],[106.375366,-6.330849],[106.374692,-6.331033],[106.373381,-6.331438],[106.372923,-6.331579],[106.371048,-6.332158],[106.370931,-6.332191],[106.370519,-6.332281],[106.370147,-6.332348],[106.369681,-6.332408],[106.369329,-6.332427],[106.365598,-6.332526],[106.365031,-6.332515],[106.364536,-6.332471],[106.364042,-6.332386],[106.363666,-6.332281],[106.363324,-6.332143],[106.36261,-6.331771],[106.361621,-6.331087],[106.361209,-6.330789],[106.359851,-6.329825],[106.359514,-6.329632],[106.359133,-6.329459],[106.358713,-6.329316],[106.358288,-6.329199],[106.357932,-6.329136],[106.357454,-6.329092],[106.35683,-6.329117],[106.356297,-6.329204],[106.35582,-6.32933],[106.355189,-6.329571],[106.354231,-6.330002],[106.347558,-6.332828],[106.347095,-6.333007],[106.3466,-6.333176],[106.346117,-6.33332],[106.345596,-6.333431],[106.345083,-6.333524],[106.344916,-6.333544],[106.335976,-6.334606],[106.334931,-6.33473],[106.332439,-6.335027]]}},
{"type":"Feature","properties":{"from":"KCI-CTR","to":"KCI-RK","lines":["R"],"lengthM":9857},"geometry":{"type":"LineString","coordinates":[[106.332439,-6.335027],[106.331842,-6.335098],[106.331183,-6.335177],[106.329055,-6.33543],[106.328921,-6.335446],[106.328079,-6.335584],[106.326535,-6.335775],[106.326341,-6.335786],[106.325917,-6.335812],[106.325062,-6.335778],[106.320727,-6.335259],[106.31982,-6.335178],[106.318929,-6.335187],[106.318458,-6.335213],[106.318127,-6.335249],[106.317299,-6.3354],[106.316604,-6.335613],[106.315501,-6.336027],[106.314706,-6.336199],[106.313939,-6.336255],[106.311449,-6.336347],[106.310749,-6.336423],[106.310397,-6.336521],[106.310064,-6.336668],[106.309768,-6.33684],[106.309462,-6.33707],[106.308408,-6.33788],[106.308048,-6.338131],[106.307365,-6.338514],[106.306937,-6.338694],[106.306041,-6.339038],[106.302304,-6.340388],[106.301883,-6.340543],[106.300667,-6.340991],[106.300131,-6.34113],[106.299637,-6.341226],[106.299172,-6.341247],[106.298471,-6.341211],[106.298059,-6.341167],[106.297711,-6.341129],[106.289007,-6.34026],[106.28882,-6.340241],[106.288333,-6.34021],[106.287875,-6.34021],[106.287541,-6.340243],[106.287202,-6.340312],[106.285645,-6.340798],[106.285147,-6.340915],[106.28468,-6.340975],[106.284309,-6.340989],[106.283357,-6.340976],[106.281602,-6.340964],[106.280683,-6.34105],[106.279783,-6.341239],[106.276631,-6.342104],[106.275617,-6.34235],[106.274931,-6.342463],[106.274565,-6.342497],[106.274135,-6.342502],[106.271249,-6.342538],[106.270942,-6.34257],[106.270675,-6.342622],[106.270344,-6.342716],[106.269992,-6.342875],[106.269517,-6.343182],[106.269115,-6.343582],[106.268805,-6.344104],[106.268645,-6.34455],[106.268572,-6.344923],[106.268561,-6.345248],[106.26859,-6.34556],[106.268709,-6.346384],[106.268665,-6.346395],[106.268699,-6.346676],[106.268709,-6.347052],[106.268683,-6.347378],[106.268644,-6.347633],[106.26857,-6.347933],[106.268501,-6.34815],[106.268374,-6.348447],[106.268194,-6.348792],[106.267895,-6.349208],[106.267733,-6.34939],[106.267305,-6.349775],[106.266992,-6.349984],[106.266687,-6.350162],[106.266054,-6.350465],[106.265921,-6.350528],[106.26538,-6.350787],[106.261216,-6.352746],[106.261038,-6.35283],[106.260488,-6.353097],[106.260256,-6.353198],[106.260026,-6.353285],[106.259746,-6.353377],[106.259442,-6.353466],[106.259149,-6.353526],[106.258804,-6.353582],[106.258512,-6.353605],[106.258234,-6.353612],[106.257956,-6.353607],[106.257675,-6.353587],[106.257364,-6.353551],[106.25701,-6.35349],[106.256167,-6.35331],[106.255959,-6.353265],[106.255314,-6.353119],[106.255117,-6.353086],[106.254813,-6.353047],[106.254684,-6.353035],[106.254255,-6.353006],[106.253994,-6.352993],[106.253722,-6.352979],[106.253405,-6.352953],[106.253095,-6.352925],[106.251956,-6.352806],[106.251197,-6.352726]]}},
{"type":"Feature","properties":{"from":"KCI-DU","to":"KCI-GGL","lines":["T"],"lengthM":1943},"geometry":{"type":"LineString","coordinates":[[106.801298,-6.1552],[106.801315,-6.155494],[106.801345,-6.15604],[106.801348,-6.156416],[106.801336,-6.156729],[106.801325,-6.156893],[106.801323,-6.157048],[106.801327,-6.157142],[106.801331,-6.157418],[106.801327,-6.157658],[106.801364,-6.158434],[106.801347,-6.158743],[106.801296,-6.159002],[106.801131,-6.15946],[106.800989,-6.159728],[106.800586,-6.160203],[106.800084,-6.160556],[106.799884,-6.160653],[106.799554,-6.160798],[106.798448,-6.161262],[106.798445,-6.161263],[106.797925,-6.161474],[106.797687,-6.161562],[106.796441,-6.162032],[106.796103,-6.162138],[106.795686,-6.162205],[106.795147,-6.162263],[106.794365,-6.162257],[106.790581,-6.162109],[106.790517,-6.162107],[106.790191,-6.162098],[106.789953,-6.162091],[106.789923,-6.16209],[106.789837,-6.162087],[106.789444,-6.162073],[106.788698,-6.162047]]}},
{"type":"Feature","properties":{"from":"KCI-GGL","to":"KCI-PSG","lines":["T"],"lengthM":1872},"geometry":{"type":"LineString","coordinates":[[106.788698,-6.162047],[106.787268,-6.161998],[106.786339,-6.161955],[106.784639,-6.16189],[106.781564,-6.161776],[106.776613,-6.161596],[106.776055,-6.161578],[106.773797,-6.161493],[106.773571,-6.161468],[106.771797,-6.161219]]}},
{"type":"Feature","properties":{"from":"KCI-PSG","to":"KCI-TKO","lines":["T"],"lengthM":1752},"geometry":{"type":"LineString","coordinates":[[106.771797,-6.161219],[106.771586,-6.161189],[106.769704,-6.1609],[106.769486,-6.160877],[106.769065,-6.160824],[106.768664,-6.160768],[106.768485,-6.160742],[106.767883,-6.160661],[106.76685,-6.16053],[106.766801,-6.160523],[106.766474,-6.160475],[106.763142,-6.159966],[106.763082,-6.159956],[106.763043,-6.159952],[106.762987,-6.159943],[106.761258,-6.159585],[106.75953,-6.159217],[106.759217,-6.159152],[106.758549,-6.159023],[106.757716,-6.158826],[106.75712,-6.158714],[106.756843,-6.158655],[106.756723,-6.158633],[106.756195,-6.158524]]}},
{"type":"Feature","properties":{"from":"KCI-TKO","to":"KCI-BOI","lines":["T"],"lengthM":2230},"geometry":{"type":"LineString","coordinates":[[106.756195,-6.158524],[106.755825,-6.158447],[106.754563,-6.158184],[106.753712,-6.157988],[106.753543,-6.157962],[106.752909,-6.157916],[106.752533,-6.157899],[106.752107,-6.157897],[106.748665,-6.158116],[106.748007,-6.158176],[106.747958,-6.158182],[106.747488,-6.158232],[106.747445,-6.158236],[106.745663,-6.158431],[106.743168,-6.158649],[106.740789,-6.158821],[106.739916,-6.158896],[106.739138,-6.159041],[106.738498,-6.159222],[106.737556,-6.159608],[106.737434,-6.159655],[106.737207,-6.15975],[106.736771,-6.159932],[106.736451,-6.160065],[106.736346,-6.160109]]}},
{"type":"Feature","properties":{"from":"KCI-BOI","to":"KCI-RW","lines":["T"],"lengthM":1449},"geometry":{"type":"LineString","coordinates":[[106.736346,-6.160109],[106.736062,-6.160227],[106.735378,-6.160456],[106.73503,-6.160537],[106.734578,-6.160643],[106.733313,-6.160886],[106.731832,-6.16114],[106.731237,-6.161252],[106.727471,-6.161939],[106.726448,-6.162115],[106.725237,-6.16232],[106.72398,-6.162549],[106.723505,-6.162631]]}},
{"type":"Feature","properties":{"from":"KCI-RW","to":"KCI-KDS","lines":["T"],"lengthM":2248},"geometry":{"type":"LineString","coordinates":[[106.723505,-6.162631],[106.722781,-6.162756],[106.721386,-6.162995],[106.720875,-6.163074],[106.720651,-6.16311],[106.71955,-6.163275],[106.714328,-6.164178],[106.710965,-6.164736],[106.704702,-6.16579],[106.703482,-6.165991],[106.703486,-6.166019]]}},
{"type":"Feature","properties":{"from":"KCI-KDS","to":"KCI-PI","lines":["T"],"lengthM":2519},"geometry":{"type":"LineString","coordinates":[[106.703486,-6.166019],[106.699177,-6.166737],[106.695883,-6.167278],[106.692877,-6.167766],[106.685666,-6.168948],[106.682396,-6.16948],[106.681001,-6.169705]]}},
{"type":"Feature","properties":{"from":"KCI-PI","to":"KCI-BPR","lines":["T"],"lengthM":1812},"geometry":{"type":"LineString","coordinates":[[106.681001,-6.169705],[106.67972,-6.169912],[106.679661,-6.169919],[106.676872,-6.170371],[106.671214,-6.171282],[106.668785,-6.171667],[106.668271,-6.171716],[106.667973,-6.171768],[106.667608,-6.17184],[106.667556,-6.171848],[106.667086,-6.171874],[106.666528,-6.171902],[106.666118,-6.17192],[106.665916,-6.171932],[106.665713,-6.171945],[106.665442,-6.171964],[106.66515,-6.171982],[106.66483,-6.172],[106.664792,-6.172003]]}},
{"type":"Feature","properties":{"from":"KCI-BPR","to":"KCI-TTI","lines":["T"],"lengthM":2147},"geometry":{"type":"LineString","coordinates":[[106.664792,-6.172003],[106.664827,-6.172268],[106.663944,-6.172407],[106.663131,-6.172534],[106.662758,-6.17259],[106.66222,-6.172675],[106.659803,-6.17308],[106.657963,-6.173361],[106.656378,-6.173619],[106.653679,-6.174044],[106.652813,-6.174181],[106.65242,-6.174242],[106.651656,-6.174363],[106.649264,-6.174747],[106.647937,-6.174951],[106.647853,-6.174965],[106.645911,-6.175271]]}},
{"type":"Feature","properties":{"from":"KCI-TTI","to":"KCI-TNG","lines":["T"],"lengthM":1663},"geometry":{"type":"LineString","coordinates":[[106.645911,-6.175271],[106.645729,-6.175299],[106.64452,-6.175491],[106.644396,-6.175511],[106.642204,-6.17585],[106.642119,-6.175865],[106.638051,-6.176503],[106.63797,-6.176516],[106.637001,-6.176674],[106.636873,-6.176695],[106.636009,-6.176821],[106.634982,-6.176924],[106.634674,-6.17695],[106.634006,-6.176949],[106.633646,-6.176941],[106.630999,-6.176826]]}},
{"type":"Feature","properties":{"from":"KCI-JAKK","to":"KCI-KPB","lines":["TP"],"lengthM":1706},"geometry":{"type":"LineString","coordinates":[[106.814727,-6.137434],[106.815891,-6.137101],[106.816627,-6.136867],[106.816869,-6.136808],[106.817152,-6.136737],[106.817834,-6.136564],[106.818024,-6.136506],[106.818943,-6.136271],[106.818979,-6.136264],[106.819239,-6.136198],[106.819421,-6.136151],[106.819627,-6.136091],[106.819873,-6.135997],[106.820121,-6.135879],[106.820368,-6.135734],[106.820617,-6.135569],[106.820787,-6.135417],[106.821219,-6.134907],[106.821554,-6.134473],[106.821954,-6.133988],[106.822177,-6.133773],[106.82245,-6.133516],[106.822708,-6.133325],[106.822893,-6.133204],[106.823033,-6.133119],[106.82329,-6.132978],[106.823554,-6.132859],[106.823972,-6.132706],[106.824721,-6.132494],[106.825214,-6.132357],[106.825364,-6.132313],[106.825604,-6.132245],[106.825926,-6.132161],[106.8261,-6.132129],[106.826684,-6.132033],[106.826971,-6.132017],[106.827281,-6.132031],[106.82752,-6.132068],[106.827719,-6.132114],[106.827988,-6.132204],[106.828202,-6.132299],[106.828516,-6.132472]]}},
{"type":"Feature","properties":{"from":"KCI-KPB","to":"KCI-AC","lines":["TP"],"lengthM":1928},"geometry":{"type":"LineString","coordinates":[[106.828516,-6.132472],[106.828931,-6.132701],[106.829017,-6.132707],[106.829138,-6.132675],[106.83072,-6.132061],[106.83133,-6.131823],[106.832782,-6.131151],[106.834247,-6.130366],[106.83509,-6.130007],[106.835526,-6.129876],[106.835797,-6.129796],[106.835808,-6.129792],[106.836051,-6.129719],[106.836821,-6.129586],[106.837728,-6.129429],[106.838817,-6.129241],[106.838934,-6.12922],[106.840278,-6.128977],[106.840768,-6.128888],[106.841635,-6.128731],[106.842807,-6.128519],[106.84377,-6.128344],[106.843903,-6.12832],[106.844383,-6.128209],[106.84462,-6.128157],[106.845112,-6.128066]]}},
{"type":"Feature","properties":{"from":"KCI-AC","to":"KCI-JIS","lines":["TP"],"lengthM":1978},"geometry":{"type":"LineString","coordinates":[[106.845112,-6.128066],[106.846454,-6.127819],[106.847669,-6.127596],[106.848037,-6.12753],[106.848207,-6.127499],[106.848791,-6.127393],[106.84999,-6.127176],[106.850785,-6.127047],[106.851372,-6.126902],[106.851832,-6.126774],[106.852603,-6.126517],[106.853721,-6.12605],[106.853801,-6.126017],[106.854018,-6.125924],[106.854629,-6.125645],[106.855516,-6.125228],[106.857754,-6.124178],[106.857866,-6.124132],[106.858251,-6.123974],[106.861051,-6.122924],[106.861754,-6.122647],[106.86202,-6.122558]]}},
{"type":"Feature","properties":{"from":"KCI-JIS","to":"KCI-TPK","lines":["TP"],"lengthM":2518},"geometry":{"type":"LineString","coordinates":[[106.86202,-6.122558],[106.862038,-6.122552],[106.862337,-6.122458],[106.863126,-6.122274],[106.863714,-6.122152],[106.863926,-6.122112],[106.86613,-6.121707],[106.866349,-6.121652],[106.866767,-6.121517],[106.867478,-6.121221],[106.86779,-6.121056],[106.868147,-6.120834],[106.868264,-6.12075],[106.868932,-6.120268],[106.870322,-6.119186],[106.871993,-6.117896],[106.873589,-6.116659],[106.874331,-6.11609],[106.875194,-6.115427],[106.877533,-6.113612],[106.877866,-6.113355],[106.87796,-6.113285],[106.878476,-6.112884],[106.879362,-6.1122],[106.881085,-6.11088]]}},
{"type":"Feature","properties":{"from":"KCI-MRI","to":"KCI-SUDB","lines":["A"],"lengthM":3639},"geometry":{"type":"LineString","coordinates":[[106.8498,-6.21],[106.849622,-6.209765],[106.849411,-6.209499],[106.849378,-6.209456],[106.849364,-6.209438],[106.849281,-6.209329],[106.849228,-6.209258],[106.849001,-6.208962],[106.84897,-6.20892],[106.848667,-6.208518],[106.848639,-6.208484],[106.848331,-6.208078],[106.848315,-6.208057],[106.848164,-6.207861],[106.848079,-6.207765],[106.847997,-6.207671],[106.847827,-6.207476],[106.847797,-6.207437],[106.84763,-6.207247],[106.847461,-6.207053],[106.847437,-6.207022],[106.84727,-6.206798],[106.847175,-6.206689],[106.84708,-6.206584],[106.846939,-6.206438],[106.84686,-6.206363],[106.846776,-6.206289],[106.846593,-6.206156],[106.846444,-6.206063],[106.846367,-6.20602],[106.846341,-6.206006],[106.846281,-6.205976],[106.846151,-6.205922],[106.845959,-6.205841],[106.845704,-6.205771],[106.845491,-6.205731],[106.845245,-6.205703],[106.84504,-6.205702],[106.844885,-6.205706],[106.844757,-6.205717],[106.844457,-6.205772],[106.844184,-6.205849],[106.843912,-6.205965],[106.843244,-6.206325],[106.843032,-6.206416],[106.842885,-6.206468],[106.842712,-6.206514],[106.842514,-6.206558],[106.842209,-6.206583],[106.842051,-6.206592],[106.841912,-6.20659],[106.841683,-6.20657],[106.841483,-6.206534],[106.841146,-6.206429],[106.841047,-6.206396],[106.838819,-6.205656],[106.838734,-6.205627],[106.837324,-6.205153],[106.837036,-6.205081],[106.836705,-6.205032],[106.835855,-6.204907],[106.835581,-6.204867],[106.834031,-6.204642],[106.83267,-6.204442],[106.831259,-6.204235],[106.831226,-6.204229],[106.830555,-6.204108],[106.828623,-6.203653],[106.825732,-6.20297],[106.825624,-6.20291],[106.824985,-6.20276],[106.824342,-6.202605],[106.823688,-6.20245],[106.823242,-6.202345],[106.823073,-6.202306],[106.822686,-6.202221],[106.82252,-6.202183],[106.822345,-6.202144],[106.819589,-6.201549]]}},
{"type":"Feature","properties":{"from":"KCI-SUDB","to":"KCI-DU","lines":["A"],"lengthM":6087},"geometry":{"type":"LineString","coordinates":[[106.819589,-6.201549],[106.818682,-6.201353],[106.817839,-6.201167],[106.815975,-6.200764],[106.815753,-6.200716],[106.815534,-6.200669],[106.81521,-6.200594],[106.813952,-6.200315],[106.813671,-6.200231],[106.813393,-6.200106],[106.813141,-6.199965],[106.812864,-6.199762],[106.81268,-6.199588],[106.81243,-6.199325],[106.812241,-6.199042],[106.812104,-6.198776],[106.811135,-6.196461],[106.81079,-6.195656],[106.810755,-6.195574],[106.810607,-6.195202],[106.810528,-6.194952],[106.810482,-6.194769],[106.810452,-6.194618],[106.810248,-6.193072],[106.81024,-6.192635],[106.810244,-6.192456],[106.810261,-6.192296],[106.810324,-6.191958],[106.810439,-6.191483],[106.810582,-6.190966],[106.810935,-6.189726],[106.810973,-6.189549],[106.811041,-6.18915],[106.811068,-6.188779],[106.811096,-6.188619],[106.811114,-6.188506],[106.811131,-6.188295],[106.811125,-6.188124],[106.811113,-6.187948],[106.811079,-6.187628],[106.811,-6.186825],[106.810992,-6.186765],[106.810949,-6.186373],[106.810928,-6.186213],[106.810896,-6.185918],[106.810851,-6.185503],[106.810773,-6.184772],[106.810719,-6.184284],[106.810677,-6.183904],[106.810638,-6.18353],[106.810589,-6.183074],[106.81051,-6.182333],[106.810502,-6.182258],[106.810399,-6.181316],[106.81036,-6.180918],[106.810312,-6.180443],[106.810263,-6.180131],[106.810216,-6.179928],[106.81016,-6.17974],[106.8101,-6.179604],[106.810017,-6.179435],[106.809807,-6.179109],[106.809508,-6.178693],[106.806511,-6.174346],[106.805231,-6.172494],[106.803284,-6.169692],[106.802535,-6.168565],[106.802439,-6.168384],[106.802369,-6.168222],[106.802234,-6.167913],[106.802143,-6.167669],[106.802065,-6.167387],[106.802031,-6.167204],[106.802003,-6.166976],[106.801979,-6.166719],[106.801677,-6.161593],[106.801582,-6.159607],[106.801557,-6.159147],[106.801532,-6.15893],[106.801448,-6.158078],[106.801406,-6.157452],[106.801345,-6.15604],[106.801315,-6.155494],[106.801298,-6.1552]]}},
{"type":"Feature","properties":{"from":"KCI-DU","to":"KCI-RW","lines":["A"],"lengthM":9243},"geometry":{"type":"LineString","coordinates":[[106.801298,-6.1552],[106.801315,-6.155494],[106.801345,-6.15604],[106.801348,-6.156416],[106.801336,-6.156729],[106.801325,-6.156893],[106.801323,-6.157048],[106.801327,-6.157142],[106.801331,-6.157418],[106.801327,-6.157658],[106.801364,-6.158434],[106.801347,-6.158743],[106.801296,-6.159002],[106.801131,-6.15946],[106.800989,-6.159728],[106.800586,-6.160203],[106.800084,-6.160556],[106.799884,-6.160653],[106.799554,-6.160798],[106.798448,-6.161262],[106.798445,-6.161263],[106.797925,-6.161474],[106.797687,-6.161562],[106.796441,-6.162032],[106.796103,-6.162138],[106.795686,-6.162205],[106.795147,-6.162263],[106.794365,-6.162257],[106.790581,-6.162109],[106.790517,-6.162107],[106.790191,-6.162098],[106.789953,-6.162091],[106.789923,-6.16209],[106.789837,-6.162087],[106.789444,-6.162073],[106.787268,-6.161998],[106.786339,-6.161955],[106.784639,-6.16189],[106.781564,-6.161776],[106.776613,-6.161596],[106.776055,-6.161578],[106.773797,-6.161493],[106.773571,-6.161468],[106.771797,-6.161219],[106.771582,-6.161212],[106.770322,-6.161035],[106.769734,-6.160946],[106.769504,-6.16091],[106.76906,-6.16086],[106.768662,-6.160796],[106.76849,-6.160774],[106.767878,-6.160697],[106.766848,-6.160566],[106.766799,-6.160559],[106.766469,-6.16051],[106.763142,-6.160002],[106.763081,-6.159992],[106.763043,-6.159987],[106.762987,-6.159978],[106.761254,-6.159611],[106.759514,-6.159285],[106.759211,-6.159224],[106.75854,-6.159058],[106.757709,-6.15886],[106.75711,-6.158747],[106.756837,-6.158684],[106.75672,-6.158661],[106.756278,-6.158565],[106.755837,-6.158478],[106.754553,-6.158208],[106.754252,-6.15814],[106.753705,-6.158024],[106.75354,-6.157999],[106.752841,-6.157969],[106.752554,-6.157938],[106.752114,-6.157944],[106.750667,-6.158046],[106.748002,-6.158277],[106.747956,-6.158283],[106.747513,-6.158335],[106.747451,-6.158341],[106.745683,-6.158493],[106.743184,-6.158689],[106.740791,-6.15886],[106.739981,-6.158936],[106.739149,-6.159089],[106.73852,-6.159277],[106.73757,-6.159641],[106.737448,-6.159689],[106.737222,-6.159783],[106.737192,-6.159796],[106.736466,-6.160099],[106.736346,-6.160109],[106.736062,-6.160227],[106.735378,-6.160456],[106.73503,-6.160537],[106.734578,-6.160643],[106.733313,-6.160886],[106.731832,-6.16114],[106.731237,-6.161252],[106.727471,-6.161939],[106.726448,-6.162115],[106.725237,-6.16232],[106.72398,-6.162549],[106.723505,-6.162631]]}},
{"type":"Feature","properties":{"from":"KCI-RW","to":"KCI-BPR","lines":["A"],"lengthM":6576},"geometry":{"type":"LineString","coordinates":[[106.723505,-6.162631],[106.722781,-6.162756],[106.721386,-6.162995],[106.720875,-6.163074],[106.720651,-6.16311],[106.71955,-6.163275],[106.714328,-6.164178],[106.710965,-6.164736],[106.704702,-6.16579],[106.702511,-6.166151],[106.699174,-6.1667],[106.695869,-6.167244],[106.692917,-6.16772],[106.685683,-6.168913],[106.680274,-6.16979],[106.679731,-6.169872],[106.67967,-6.169884],[106.676873,-6.17033],[106.671212,-6.171242],[106.669258,-6.171553],[106.668271,-6.171716],[106.667973,-6.171768],[106.667608,-6.17184],[106.667556,-6.171848],[106.667086,-6.171874],[106.666528,-6.171902],[106.666118,-6.17192],[106.665916,-6.171932],[106.665713,-6.171945],[106.665442,-6.171964],[106.66515,-6.171982],[106.66483,-6.172],[106.664792,-6.172003]]}},
{"type":"Feature","properties":{"from":"KCI-BPR","to":"KCI-BST","lines":["A"],"lengthM":11797},"geometry":{"type":"LineString","coordinates":[[106.664792,-6.172003],[106.664522,-6.172026],[106.664302,-6.172054],[106.664053,-6.172095],[106.660047,-6.172778],[106.659776,-6.172823],[106.65968,-6.172839],[106.658968,-6.172898],[106.658502,-6.172973],[106.657881,-6.173103],[106.656329,-6.173431],[106.655325,-6.17365],[106.654818,-6.17376],[106.65415,-6.173895],[106.653036,-6.174028],[106.652764,-6.174042],[106.652412,-6.174045],[106.652178,-6.174026],[106.651989,-6.174],[106.651752,-6.17395],[106.651618,-6.173911],[106.651281,-6.173798],[106.651015,-6.173674],[106.650771,-6.173535],[106.650569,-6.1734],[106.650429,-6.173293],[106.650369,-6.173235],[106.650255,-6.173121],[106.650053,-6.172914],[106.649876,-6.17273],[106.649823,-6.172672],[106.649582,-6.172324],[106.649416,-6.172032],[106.649332,-6.171822],[106.649304,-6.171756],[106.649247,-6.171569],[106.649163,-6.171169],[106.649146,-6.171036],[106.649126,-6.17072],[106.649122,-6.170525],[106.64915,-6.170088],[106.649194,-6.169824],[106.649269,-6.169541],[106.649334,-6.169328],[106.649438,-6.169101],[106.649617,-6.168781],[106.649748,-6.16857],[106.650007,-6.168234],[106.650279,-6.167944],[106.650429,-6.167793],[106.650608,-6.167604],[106.650897,-6.167324],[106.651211,-6.167016],[106.651634,-6.166617],[106.651838,-6.166433],[106.652086,-6.16622],[106.652517,-6.165834],[106.652799,-6.165579],[106.654238,-6.16423],[106.654955,-6.163541],[106.655089,-6.163413],[106.655205,-6.163301],[106.65702,-6.161623],[106.657418,-6.161243],[106.658526,-6.160184],[106.658584,-6.160066],[106.659599,-6.159107],[106.65986,-6.158801],[106.660126,-6.15838],[106.660271,-6.158088],[106.660362,-6.157858],[106.660403,-6.157627],[106.660443,-6.157306],[106.66045,-6.156946],[106.660265,-6.154949],[106.660231,-6.154589],[106.660085,-6.153014],[106.660064,-6.152551],[106.660098,-6.151738],[106.660195,-6.150103],[106.66021,-6.149546],[106.660191,-6.14926],[106.660168,-6.148899],[106.660071,-6.148335],[106.65995,-6.147911],[106.659806,-6.147527],[106.65962,-6.147128],[106.659464,-6.146793],[106.659196,-6.14642],[106.659066,-6.146237],[106.658616,-6.145751],[106.658236,-6.145401],[106.657769,-6.145072],[106.657464,-6.144899],[106.656964,-6.144649],[106.653779,-6.143143],[106.653407,-6.142992],[106.653038,-6.142857],[106.65269,-6.142781],[106.652699,-6.142735],[106.652367,-6.14267],[106.651946,-6.14262],[106.651175,-6.142621],[106.650818,-6.142659],[106.650448,-6.142721],[106.65004,-6.14282],[106.649482,-6.143016],[106.642087,-6.146014],[106.641655,-6.146206],[106.641239,-6.146446],[106.640912,-6.146658],[106.639122,-6.147953],[106.638824,-6.14813],[106.638562,-6.148255],[106.638185,-6.148409],[106.637868,-6.148498],[106.637476,-6.14856],[106.637044,-6.148588],[106.636699,-6.148589],[106.636286,-6.148529],[106.635919,-6.148442],[106.635762,-6.148391],[106.635606,-6.148338],[106.635455,-6.148274],[106.635305,-6.148196],[106.635097,-6.148075],[106.634962,-6.147988],[106.634582,-6.147718],[106.63432,-6.147476],[106.63403,-6.147152],[106.633793,-6.146834],[106.63361,-6.146538],[106.633473,-6.146265],[106.633357,-6.14597],[106.633285,-6.145735],[106.633255,-6.145635],[106.63319,-6.145299],[106.633163,-6.14492],[106.633164,-6.144584],[106.633213,-6.142398],[106.63327,-6.141329],[106.633354,-6.140225],[106.633528,-6.137615],[106.633572,-6.136965],[106.633634,-6.136494],[106.633724,-6.136163],[106.633848,-6.135891],[106.634008,-6.13562],[106.634355,-6.135147],[106.634636,-6.134805],[106.635011,-6.134468],[106.635167,-6.134326],[106.635405,-6.13416],[106.635709,-6.134006],[106.635971,-6.13388],[106.636688,-6.133596],[106.645232,-6.130216],[106.646249,-6.129794],[106.646696,-6.129614],[106.647087,-6.129456],[106.647567,-6.129262],[106.647889,-6.129135],[106.649551,-6.128471],[106.651044,-6.127881],[106.651824,-6.127572]]}}
]}
