{"type":"FeatureCollection","features":[
{"type":"Feature","properties":{"from":"LRTJ-PGD","to":"LRTJ-BVU","lines":["S"],"lengthM":1278},"geometry":{"type":"LineString","coordinates":[[106.914149,-6.156001],[106.91415,-6.155911],[106.914152,-6.155495],[106.91415,-6.155423],[106.914141,-6.15535],[106.914128,-6.155293],[106.914113,-6.155249],[106.914094,-6.155209],[106.914076,-6.155177],[106.914045,-6.155136],[106.914011,-6.155097],[106.913979,-6.155066],[106.91394,-6.155034],[106.913895,-6.155002],[106.913855,-6.154977],[106.913809,-6.154956],[106.91376,-6.15494],[106.913694,-6.154922],[106.913623,-6.154909],[106.913553,-6.154904],[106.913424,-6.154898],[106.912184,-6.154841],[106.91085,-6.154754],[106.910352,-6.154706],[106.909657,-6.154611],[106.909395,-6.154583],[106.909307,-6.154595],[106.909172,-6.154627],[106.9091,-6.154661],[106.909038,-6.154702],[106.908965,-6.154774],[106.908905,-6.15486],[106.908668,-6.155237],[106.908025,-6.156276],[106.907586,-6.15698],[106.907307,-6.157424],[106.907154,-6.157664],[106.906871,-6.158095],[106.9068,-6.158208],[106.906398,-6.158854],[106.906134,-6.15928],[106.906046,-6.159329]]}},
{"type":"Feature","properties":{"from":"LRTJ-BVU","to":"LRTJ-BVS","lines":["S"],"lengthM":1263},"geometry":{"type":"LineString","coordinates":[[106.906046,-6.159329],[106.905858,-6.159623],[106.905748,-6.159801],[106.905632,-6.159987],[106.905084,-6.160869],[106.904891,-6.161187],[106.902136,-6.165552],[106.901057,-6.167276],[106.900987,-6.167387],[106.900113,-6.168783],[106.899999,-6.168962]]}},
{"type":"Feature","properties":{"from":"LRTJ-BVS","to":"LRTJ-PUM","lines":["S"],"lengthM":1196},"geometry":{"type":"LineString","coordinates":[[106.899999,-6.168962],[106.899712,-6.169414],[106.8995,-6.169754],[106.899462,-6.169815],[106.899159,-6.170298],[106.897548,-6.172862],[106.897218,-6.17338],[106.896703,-6.17415],[106.896231,-6.174837],[106.896082,-6.175024],[106.895949,-6.17517],[106.895837,-6.175274],[106.895712,-6.175381],[106.895597,-6.175468],[106.895475,-6.175548],[106.895257,-6.175675],[106.894733,-6.175952],[106.894563,-6.176038],[106.894377,-6.176138],[106.894265,-6.176209],[106.894188,-6.176265],[106.894075,-6.176363],[106.893989,-6.176446],[106.89389,-6.176553],[106.893823,-6.176631],[106.893728,-6.176773],[106.893407,-6.177269]]}},
{"type":"Feature","properties":{"from":"LRTJ-PUM","to":"LRTJ-EQS","lines":["S"],"lengthM":750},"geometry":{"type":"LineString","coordinates":[[106.893407,-6.177269],[106.893329,-6.177389],[106.893207,-6.177576],[106.893178,-6.17762],[106.893123,-6.177706],[106.893077,-6.17778],[106.892865,-6.178117],[106.892755,-6.178323],[106.892669,-6.178507],[106.892467,-6.17897],[106.892209,-6.179622],[106.892053,-6.180073],[106.891895,-6.180592],[106.891836,-6.180795],[106.89173,-6.181218],[106.891606,-6.181716],[106.891544,-6.181991],[106.891493,-6.182269],[106.891389,-6.183051],[106.891375,-6.183164],[106.891323,-6.183614]]}},
{"type":"Feature","properties":{"from":"LRTJ-EQS","to":"LRTJ-VEL","lines":["S"],"lengthM":978},"geometry":{"type":"LineString","coordinates":[[106.891323,-6.183614],[106.891292,-6.183883],[106.891274,-6.184039],[106.891253,-6.184264],[106.891179,-6.185035],[106.891144,-6.185513],[106.891111,-6.187707],[106.891114,-6.188384],[106.891137,-6.188943],[106.89115,-6.189391],[106.891184,-6.190776],[106.891184,-6.190975],[106.891181,-6.191345],[106.89118,-6.191478],[106.891173,-6.192318],[106.891173,-6.1924]]}},
{"type":"Feature","properties":{"from":"LRTJ-VEL","to":"LRTJ-RWM","lines":["S"],"lengthM":1038},"geometry":{"type":"LineString","coordinates":[[106.891173,-6.1924],[106.891173,-6.192643],[106.891172,-6.192796],[106.891168,-6.192917],[106.89116,-6.19298],[106.89114,-6.193041],[106.891112,-6.193114],[106.891062,-6.193199],[106.890985,-6.193282],[106.890918,-6.193332],[106.890851,-6.193375],[106.890755,-6.193414],[106.890626,-6.193442],[106.890422,-6.19345],[106.890325,-6.19345],[106.890179,-6.19345],[106.888042,-6.193437],[106.886391,-6.193427],[106.886149,-6.193423],[106.885856,-6.193411],[106.885344,-6.193372],[106.88407,-6.193274],[106.883145,-6.193179],[106.882587,-6.193121]]}},
{"type":"Feature","properties":{"from":"LRTJ-RWM","to":"LRTJ-PKA","lines":["S"],"lengthM":1332},"geometry":{"type":"LineString","coordinates":[[106.882587,-6.193121],[106.882179,-6.193079],[106.881998,-6.193061],[106.879768,-6.192831],[106.876686,-6.192514],[106.875455,-6.192351],[106.874655,-6.192239],[106.873855,-6.192126],[106.873567,-6.192085],[106.873228,-6.192037],[106.872944,-6.191997],[106.872456,-6.191949],[106.871981,-6.191933],[106.871517,-6.191938],[106.871275,-6.19195],[106.871083,-6.191962],[106.870709,-6.191995],[106.870611,-6.192005]]}},
{"type":"Feature","properties":{"from":"LRTJ-PKA","to":"LRTJ-KYM","lines":["S"],"lengthM":1249},"geometry":{"type":"LineString","coordinates":[[106.870611,-6.192005],[106.870184,-6.192049],[106.869195,-6.192149],[106.868885,-6.192225],[106.868092,-6.192305],[106.866402,-6.192474],[106.866049,-6.19251],[106.8656,-6.192568],[106.865164,-6.192638],[106.864447,-6.192792],[106.863907,-6.192945],[106.86325,-6.193182],[106.862986,-6.193295],[106.862729,-6.193413],[106.862362,-6.193598],[106.862143,-6.193708],[106.861639,-6.194003],[106.860986,-6.194433],[106.860426,-6.194807],[106.860151,-6.194999],[106.85995,-6.195075]]}},
{"type":"Feature","properties":{"from":"LRTJ-KYM","to":"LRTJ-MAT","lines":["S"],"lengthM":1330},"geometry":{"type":"LineString","coordinates":[[106.85995,-6.195075],[106.859851,-6.195141],[106.859598,-6.195308],[106.857602,-6.196649],[106.856958,-6.197081],[106.856847,-6.197158],[106.856674,-6.197281],[106.856455,-6.197465],[106.856313,-6.19759],[106.856153,-6.197748],[106.855994,-6.197893],[106.855761,-6.198073],[106.855311,-6.198388],[106.854377,-6.199123],[106.853585,-6.199781],[106.852699,-6.200519],[106.851989,-6.201111],[106.851589,-6.201391],[106.851395,-6.201513],[106.851261,-6.201581],[106.851093,-6.201645],[106.850842,-6.201732],[106.850698,-6.201795],[106.850683,-6.201802],[106.850588,-6.20185],[106.850453,-6.20193],[106.850247,-6.202069]]}},
{"type":"Feature","properties":{"from":"LRTJ-MAT","to":"LRTJ-MGI","lines":["S"],"lengthM":1042},"geometry":{"type":"LineString","coordinates":[[106.850247,-6.202069],[106.850007,-6.202231],[106.849777,-6.202386],[106.849662,-6.202463],[106.849598,-6.202519],[106.849524,-6.202612],[106.849485,-6.202692],[106.849459,-6.202797],[106.849443,-6.202902],[106.849415,-6.203058],[106.849329,-6.203552],[106.849296,-6.203739],[106.849053,-6.205068],[106.84887,-6.206099],[106.848794,-6.206477],[106.848747,-6.206677],[106.848661,-6.206987],[106.848557,-6.207277],[106.848487,-6.207424],[106.848401,-6.207601],[106.848185,-6.208046],[106.848061,-6.208244],[106.847981,-6.208343],[106.847895,-6.208434],[106.847831,-6.208496],[106.847737,-6.20858],[106.847645,-6.20865],[106.847566,-6.208699],[106.847457,-6.208755],[106.847333,-6.208803],[106.847209,-6.20884],[106.847005,-6.208878],[106.846805,-6.208894],[106.846638,-6.208887],[106.846488,-6.208869],[106.846258,-6.208811],[106.845691,-6.208627]]}}
]}
