{"type":"FeatureCollection","features":[
{"type":"Feature","properties":{"from":"LRTJBDB-DKA","to":"LRTJBDB-SET","lines":["BK","CB"],"lengthM":787},"geometry":{"type":"LineString","coordinates":[[106.825576,-6.204813],[106.825566,-6.20486],[106.826366,-6.205027],[106.82684,-6.205126],[106.827174,-6.205191],[106.827389,-6.205226],[106.827794,-6.205282],[106.827923,-6.205306],[106.828045,-6.205341],[106.82816,-6.205387],[106.828274,-6.205452],[106.828367,-6.205528],[106.828446,-6.205614],[106.828534,-6.20575],[106.828604,-6.205889],[106.828665,-6.206023],[106.82873,-6.20614],[106.828846,-6.206305],[106.828986,-6.206472],[106.829118,-6.206616],[106.829215,-6.20674],[106.829325,-6.20692],[106.829412,-6.2071],[106.829522,-6.207332],[106.829687,-6.207693],[106.829825,-6.207994],[106.829926,-6.208275],[106.830026,-6.208571],[106.83009,-6.208793],[106.830157,-6.209064],[106.830187,-6.209203]]}},
{"type":"Feature","properties":{"from":"LRTJBDB-SET","to":"LRTJBDB-RAS","lines":["BK","CB"],"lengthM":1393},"geometry":{"type":"LineString","coordinates":[[106.830187,-6.209203],[106.830218,-6.209343],[106.830286,-6.2097],[106.830313,-6.20991],[106.830321,-6.209975],[106.830374,-6.210482],[106.830409,-6.211021],[106.830421,-6.211294],[106.830427,-6.211835],[106.830419,-6.212618],[106.830426,-6.212949],[106.830456,-6.213343],[106.830667,-6.216178],[106.830695,-6.216442],[106.830747,-6.216765],[106.830824,-6.21717],[106.831019,-6.218046],[106.831202,-6.218647],[106.83135,-6.219109],[106.831474,-6.219496],[106.831614,-6.219835],[106.831698,-6.22003],[106.831886,-6.220466],[106.831956,-6.220652],[106.832025,-6.220871],[106.832056,-6.220988],[106.832179,-6.22148]]}},
{"type":"Feature","properties":{"from":"LRTJBDB-RAS","to":"LRTJBDB-KUA","lines":["BK","CB"],"lengthM":812},"geometry":{"type":"LineString","coordinates":[[106.832179,-6.22148],[106.83222,-6.221645],[106.83238,-6.222285],[106.83255,-6.222953],[106.832721,-6.223647],[106.832773,-6.223854],[106.832811,-6.224051],[106.832834,-6.224237],[106.832853,-6.224449],[106.832912,-6.225217],[106.832983,-6.226057],[106.833175,-6.228695]]}},
{"type":"Feature","properties":{"from":"LRTJBDB-KUA","to":"LRTJBDB-PAN","lines":["BK","CB"],"lengthM":2557},"geometry":{"type":"LineString","coordinates":[[106.833175,-6.228695],[106.833223,-6.228782],[106.83326,-6.229338],[106.833271,-6.229663],[106.833253,-6.229856],[106.833228,-6.230043],[106.833195,-6.230223],[106.83314,-6.230424],[106.832986,-6.230922],[106.832914,-6.231136],[106.83286,-6.231294],[106.832801,-6.231451],[106.832567,-6.23194],[106.832493,-6.232072],[106.832408,-6.232213],[106.832317,-6.232354],[106.832198,-6.232518],[106.832036,-6.232723],[106.83186,-6.232934],[106.831682,-6.233132],[106.831514,-6.233304],[106.831211,-6.233569],[106.830887,-6.233806],[106.830617,-6.233986],[106.83029,-6.234167],[106.829274,-6.234628],[106.829014,-6.23476],[106.82889,-6.234835],[106.828785,-6.234904],[106.828649,-6.235007],[106.828536,-6.235099],[106.82845,-6.235177],[106.828234,-6.235396],[106.828079,-6.235569],[106.827955,-6.235728],[106.827865,-6.23586],[106.827624,-6.236236],[106.827562,-6.236343],[106.827513,-6.236447],[106.827471,-6.236561],[106.82744,-6.236683],[106.827428,-6.236811],[106.827428,-6.236914],[106.827449,-6.237055],[106.827481,-6.237164],[106.827529,-6.237282],[106.827587,-6.237382],[106.827657,-6.237481],[106.827747,-6.237577],[106.827847,-6.237657],[106.827974,-6.237742],[106.828083,-6.23781],[106.828364,-6.23798],[106.828579,-6.238104],[106.828817,-6.238232],[106.829552,-6.238587],[106.829746,-6.238688],[106.830344,-6.23905],[106.830728,-6.239288],[106.830955,-6.239434],[106.831554,-6.239849],[106.831805,-6.240014],[106.832001,-6.240129],[106.832467,-6.24039],[106.832704,-6.240515],[106.832946,-6.240622],[106.833161,-6.240704],[106.833349,-6.240766],[106.83356,-6.240827],[106.835039,-6.241218],[106.836625,-6.241625],[106.836962,-6.241707],[106.837839,-6.241936],[106.838262,-6.242046]]}},
{"type":"Feature","properties":{"from":"LRTJBDB-PAN","to":"LRTJBDB-CKK","lines":["BK","CB"],"lengthM":2090},"geometry":{"type":"LineString","coordinates":[[106.838262,-6.242046],[106.838522,-6.242113],[106.839098,-6.242277],[106.839909,-6.242514],[106.840204,-6.242607],[106.840504,-6.242691],[106.841248,-6.242868],[106.841454,-6.242932],[106.84165,-6.243005],[106.842443,-6.243364],[106.842638,-6.243439],[106.842835,-6.243506],[106.843045,-6.243561],[106.843329,-6.243614],[106.843485,-6.243631],[106.844169,-6.243667],[106.846017,-6.243763],[106.846313,-6.243774],[106.846841,-6.243755],[106.848011,-6.243642],[106.848515,-6.243607],[106.84889,-6.243593],[106.849657,-6.243575],[106.850044,-6.243555],[106.8519,-6.243428],[106.85228,-6.243409],[106.855597,-6.243424],[106.856402,-6.243427],[106.856899,-6.243442]]}},
{"type":"Feature","properties":{"from":"LRTJBDB-CKK","to":"LRTJBDB-CIL","lines":["BK","CB"],"lengthM":764},"geometry":{"type":"LineString","coordinates":[[106.856899,-6.243442],[106.857073,-6.243447],[106.857698,-6.243467],[106.858229,-6.243486],[106.858919,-6.243484],[106.859275,-6.243486],[106.86007,-6.243477],[106.860653,-6.243446],[106.861242,-6.24339],[106.861702,-6.243363],[106.86226,-6.243348],[106.862714,-6.243343],[106.86307,-6.24335],[106.863414,-6.243371],[106.863656,-6.243395],[106.863799,-6.243408]]}},
{"type":"Feature","properties":{"from":"LRTJBDB-CIL","to":"LRTJBDB-CWG","lines":["BK","CB"],"lengthM":861},"geometry":{"type":"LineString","coordinates":[[106.863799,-6.243408],[106.863972,-6.243429],[106.864053,-6.243437],[106.864132,-6.243446],[106.864243,-6.243461],[106.8644,-6.243486],[106.864536,-6.243511],[106.864785,-6.243559],[106.865052,-6.24361],[106.865309,-6.243666],[106.865556,-6.24373],[106.865817,-6.243813],[106.866725,-6.244126],[106.867074,-6.244257],[106.867392,-6.244388],[106.86803,-6.244675],[106.869166,-6.245153],[106.869225,-6.245178],[106.869825,-6.245448],[106.869969,-6.245507],[106.870119,-6.245563],[106.8703,-6.245625],[106.870411,-6.245658],[106.870594,-6.245711],[106.870712,-6.245744],[106.871153,-6.245866]]}},
{"type":"Feature","properties":{"from":"LRTJBDB-CWG","to":"LRTJBDB-HAL","lines":["BK"],"lengthM":1992},"geometry":{"type":"LineString","coordinates":[[106.871153,-6.245866],[106.871234,-6.245889],[106.871928,-6.246076],[106.872906,-6.246333],[106.873314,-6.246428],[106.873598,-6.246504],[106.87368,-6.24653],[106.873762,-6.24656],[106.873831,-6.246592],[106.87389,-6.24663],[106.873929,-6.246663],[106.874174,-6.246876],[106.87456,-6.247212],[106.875402,-6.247915],[106.876098,-6.24847],[106.876177,-6.248536],[106.876239,-6.248588],[106.876418,-6.248679],[106.876597,-6.248741],[106.876762,-6.248757],[106.876905,-6.248744],[106.877057,-6.248712],[106.877208,-6.248661],[106.877506,-6.248528],[106.877803,-6.248308],[106.878159,-6.248056],[106.878478,-6.24783],[106.878989,-6.247483],[106.879143,-6.247389],[106.879326,-6.247296],[106.879557,-6.247204],[106.879771,-6.247146],[106.880079,-6.247091],[106.880291,-6.247075],[106.881369,-6.247127],[106.883399,-6.247237],[106.883744,-6.247242],[106.884037,-6.247224],[106.884539,-6.247145],[106.885009,-6.24704],[106.885417,-6.246904],[106.885835,-6.246738],[106.886484,-6.246372],[106.886745,-6.246207],[106.887068,-6.246003],[106.88728,-6.245852],[106.887479,-6.24571]]}},
{"type":"Feature","properties":{"from":"LRTJBDB-HAL","to":"LRTJBDB-JBU","lines":["BK"],"lengthM":5169},"geometry":{"type":"LineString","coordinates":[[106.887479,-6.24571],[106.887532,-6.245672],[106.887869,-6.245423],[106.888056,-6.245285],[106.888755,-6.244814],[106.889195,-6.244513],[106.889433,-6.24436],[106.8897,-6.244205],[106.89002,-6.244062],[106.890263,-6.243973],[106.890496,-6.243901],[106.890732,-6.243834],[106.891027,-6.243766],[106.891436,-6.243697],[106.89232,-6.243602],[106.892912,-6.243593],[106.893421,-6.243644],[106.893911,-6.243728],[106.894524,-6.243906],[106.895203,-6.244154],[106.895861,-6.244455],[106.896707,-6.244968],[106.897428,-6.245493],[106.897819,-6.245869],[106.898447,-6.246541],[106.899524,-6.248025],[106.899926,-6.248721],[106.900828,-6.250298],[106.901259,-6.25103],[106.901571,-6.251481],[106.901851,-6.251854],[106.902075,-6.252129],[106.902373,-6.252458],[106.902698,-6.252781],[106.903071,-6.253121],[106.903356,-6.25336],[106.903653,-6.253593],[106.903869,-6.253746],[106.904152,-6.253931],[106.904492,-6.254142],[106.904952,-6.254395],[106.905439,-6.254631],[106.906334,-6.25496],[106.907249,-6.255202],[106.907658,-6.25535],[106.908404,-6.255625],[106.908557,-6.255681],[106.908925,-6.255841],[106.909425,-6.256058],[106.90978,-6.256212],[106.90992,-6.256272],[106.910182,-6.256386],[106.910426,-6.256489],[106.910616,-6.256569],[106.911046,-6.25675],[106.911476,-6.256931],[106.912587,-6.257399],[106.913172,-6.257603],[106.913773,-6.257752],[106.914794,-6.257974],[106.915306,-6.258055],[106.915961,-6.25811],[106.918098,-6.258179],[106.920319,-6.258114],[106.92086,-6.258103],[106.922433,-6.258023],[106.924852,-6.257872],[106.926877,-6.257772],[106.927182,-6.257752],[106.927916,-6.257704],[106.928205,-6.25769]]}},
{"type":"Feature","properties":{"from":"LRTJBDB-JBU","to":"LRTJBDB-CK1","lines":["BK"],"lengthM":2616},"geometry":{"type":"LineString","coordinates":[[106.928205,-6.25769],[106.92856,-6.257672],[106.936904,-6.257256],[106.938445,-6.257178],[106.940346,-6.257083],[106.940679,-6.257052],[106.943017,-6.256672],[106.943327,-6.256644],[106.943636,-6.256643],[106.943864,-6.256647],[106.945693,-6.256805],[106.945987,-6.256826],[106.946297,-6.25683],[106.948577,-6.256731],[106.949242,-6.256695],[106.951286,-6.256606],[106.951808,-6.256584]]}},
{"type":"Feature","properties":{"from":"LRTJBDB-CK1","to":"LRTJBDB-CK2","lines":["BK"],"lengthM":1275},"geometry":{"type":"LineString","coordinates":[[106.951808,-6.256584],[106.951878,-6.256581],[106.952539,-6.256534],[106.952703,-6.256522],[106.954137,-6.2563],[106.954495,-6.256269],[106.955377,-6.256227],[106.955654,-6.256204],[106.956013,-6.256151],[106.957946,-6.255756],[106.959189,-6.255471],[106.959474,-6.255423],[106.959798,-6.255401],[106.960777,-6.255352],[106.961106,-6.255319],[106.961346,-6.255281],[106.961621,-6.255214],[106.961888,-6.255136],[106.962503,-6.254912],[106.962568,-6.254886],[106.963126,-6.254666]]}},
{"type":"Feature","properties":{"from":"LRTJBDB-CK2","to":"LRTJBDB-BEK","lines":["BK"],"lengthM":3249},"geometry":{"type":"LineString","coordinates":[[106.963126,-6.254666],[106.96317,-6.254649],[106.96368,-6.254448],[106.965017,-6.253922],[106.965559,-6.253654],[106.967915,-6.252295],[106.969989,-6.250912],[106.970676,-6.25049],[106.971331,-6.25013],[106.971863,-6.249863],[106.972453,-6.249596],[106.973229,-6.249288],[106.974119,-6.249004],[106.974867,-6.248806],[106.975514,-6.248671],[106.976231,-6.24856],[106.977066,-6.248477],[106.977578,-6.248461],[106.97885,-6.24847],[106.979529,-6.248494],[106.979808,-6.248513],[106.980125,-6.248553],[106.98073,-6.24865],[106.981301,-6.24879],[106.982252,-6.249091],[106.983089,-6.249398],[106.985446,-6.250437],[106.986903,-6.251228],[106.989654,-6.252582],[106.990109,-6.252781]]}},
{"type":"Feature","properties":{"from":"LRTJBDB-BEK","to":"LRTJBDB-JTM","lines":["BK"],"lengthM":3691},"geometry":{"type":"LineString","coordinates":[[106.990109,-6.252781],[106.990437,-6.252924],[106.9908,-6.253081],[106.994381,-6.254456],[106.997187,-6.255416],[106.997339,-6.25547],[106.997545,-6.255548],[107.004521,-6.258045],[107.007221,-6.258985],[107.010093,-6.260024],[107.017961,-6.262781],[107.018032,-6.262805],[107.019771,-6.26342],[107.020063,-6.263524],[107.020938,-6.263831],[107.021517,-6.264034]]}},
{"type":"Feature","properties":{"from":"LRTJBDB-CWG","to":"LRTJBDB-TMI","lines":["CB"],"lengthM":5921},"geometry":{"type":"LineString","coordinates":[[106.871153,-6.245866],[106.871234,-6.245889],[106.871928,-6.246076],[106.872383,-6.246226],[106.872859,-6.246353],[106.872961,-6.246379],[106.873312,-6.246461],[106.87358,-6.24654],[106.873672,-6.246575],[106.873739,-6.246607],[106.873815,-6.246642],[106.873887,-6.246684],[106.874152,-6.246911],[106.87454,-6.247244],[106.875379,-6.24793],[106.875608,-6.248176],[106.875692,-6.248294],[106.875749,-6.248405],[106.875785,-6.248547],[106.875799,-6.248651],[106.875794,-6.248764],[106.875775,-6.248878],[106.875742,-6.248984],[106.87568,-6.249116],[106.875621,-6.249209],[106.875418,-6.24947],[106.875242,-6.249658],[106.874633,-6.250228],[106.874303,-6.250556],[106.873789,-6.25104],[106.873427,-6.25139],[106.873153,-6.251671],[106.873006,-6.251885],[106.872852,-6.252127],[106.872626,-6.252539],[106.872524,-6.252803],[106.871715,-6.254885],[106.871655,-6.255075],[106.871631,-6.25528],[106.871633,-6.255447],[106.871663,-6.255599],[106.871731,-6.255779],[106.871815,-6.255928],[106.871864,-6.255995],[106.871983,-6.256129],[106.87277,-6.25672],[106.872919,-6.256892],[106.873029,-6.257049],[106.873084,-6.257188],[106.873126,-6.257338],[106.873386,-6.25874],[106.873443,-6.259118],[106.873461,-6.259588],[106.873462,-6.259937],[106.873229,-6.263748],[106.873199,-6.264275],[106.873234,-6.264674],[106.873357,-6.265579],[106.873409,-6.266167],[106.873414,-6.266723],[106.873379,-6.267075],[106.873054,-6.268903],[106.87299,-6.269544],[106.872964,-6.270165],[106.872967,-6.270743],[106.87298,-6.271269],[106.873013,-6.272057],[106.873068,-6.272914],[106.873077,-6.27325],[106.873112,-6.273524],[106.873161,-6.273769],[106.873304,-6.274416],[106.873671,-6.276022],[106.873859,-6.276639],[106.874102,-6.277346],[106.874557,-6.278435],[106.875106,-6.279818],[106.876761,-6.283742],[106.877024,-6.284351],[106.877493,-6.285273],[106.877646,-6.285598],[106.877767,-6.28581],[106.878027,-6.286253],[106.878252,-6.286648],[106.878326,-6.286812],[106.878418,-6.287036],[106.878636,-6.287618],[106.878789,-6.288053],[106.878909,-6.288333],[106.879101,-6.288808],[106.879302,-6.289418],[106.879531,-6.290098],[106.879847,-6.291019],[106.879979,-6.29141],[106.880347,-6.29241],[106.8805,-6.2928]]}},
{"type":"Feature","properties":{"from":"LRTJBDB-TMI","to":"LRTJBDB-KAM","lines":["CB"],"lengthM":1947},"geometry":{"type":"LineString","coordinates":[[106.8805,-6.2928],[106.880543,-6.292911],[106.88076,-6.293487],[106.881602,-6.29556],[106.881915,-6.296347],[106.882012,-6.296608],[106.882783,-6.298515],[106.883111,-6.299229],[106.883266,-6.299716],[106.883354,-6.30008],[106.883428,-6.300407],[106.883757,-6.302155],[106.883785,-6.302344],[106.883829,-6.302572],[106.883863,-6.302794],[106.883893,-6.30298],[106.883937,-6.303108],[106.884025,-6.303274],[106.884104,-6.303386],[106.884429,-6.303794],[106.884539,-6.303969],[106.884596,-6.304086],[106.884644,-6.304233],[106.884667,-6.304402],[106.884658,-6.304598],[106.884621,-6.304777],[106.884528,-6.304996],[106.884109,-6.305872],[106.88392,-6.30628],[106.883879,-6.306473],[106.883867,-6.306602],[106.883874,-6.306827],[106.883889,-6.306962],[106.884079,-6.307955],[106.884247,-6.308901],[106.884315,-6.309298]]}},
{"type":"Feature","properties":{"from":"LRTJBDB-KAM","to":"LRTJBDB-CRC","lines":["CB"],"lengthM":1641},"geometry":{"type":"LineString","coordinates":[[106.884315,-6.309298],[106.884358,-6.309552],[106.884525,-6.310429],[106.884551,-6.310526],[106.884583,-6.310615],[106.884621,-6.310704],[106.884672,-6.310812],[106.884737,-6.310935],[106.884936,-6.311293],[106.885052,-6.311507],[106.885114,-6.311641],[106.885171,-6.311795],[106.885289,-6.312168],[106.885389,-6.312575],[106.885487,-6.312958],[106.885691,-6.313951],[106.885837,-6.31462],[106.885948,-6.315131],[106.886037,-6.31565],[106.88621,-6.31663],[106.886286,-6.31711],[106.886392,-6.317789],[106.886513,-6.318652],[106.88657,-6.319277],[106.886616,-6.321212],[106.886608,-6.32313],[106.886615,-6.323701],[106.886663,-6.3237]]}},
{"type":"Feature","properties":{"from":"LRTJBDB-CRC","to":"LRTJBDB-HAR","lines":["CB"],"lengthM":5673},"geometry":{"type":"LineString","coordinates":[[106.886663,-6.3237],[106.886663,-6.323769],[106.886671,-6.324364],[106.886719,-6.326452],[106.886682,-6.326928],[106.886763,-6.328283],[106.886789,-6.329121],[106.886834,-6.329919],[106.88694,-6.330977],[106.887022,-6.331624],[106.887926,-6.337145],[106.887985,-6.337479],[106.888054,-6.337777],[106.888178,-6.338201],[106.888306,-6.338622],[106.888398,-6.339011],[106.888623,-6.340166],[106.889004,-6.342173],[106.889229,-6.343378],[106.889766,-6.346241],[106.889827,-6.346534],[106.889978,-6.347089],[106.890664,-6.349544],[106.89083,-6.350197],[106.891187,-6.351463],[106.891691,-6.353223],[106.89189,-6.354052],[106.892225,-6.355043],[106.892378,-6.355606],[106.892593,-6.356531],[106.892678,-6.356955],[106.893177,-6.359858],[106.893475,-6.36158],[106.893692,-6.363259],[106.894001,-6.365533],[106.894046,-6.365807],[106.894108,-6.36605],[106.894183,-6.366263],[106.894446,-6.366954],[106.894521,-6.367204],[106.894572,-6.367428],[106.894661,-6.367953],[106.894966,-6.369798],[106.895135,-6.371032],[106.895208,-6.371536],[106.895377,-6.372445],[106.895538,-6.373274],[106.89563,-6.373776]]}}
]}
