{"type":"FeatureCollection","attribution":"© OpenStreetMap contributors","license":"ODbL-1.0 (https://www.openstreetmap.org/copyright)","features":[
{"type":"Feature","properties":{"from":"MRTJ-LBB","to":"MRTJ-FTM","lines":["M"],"lengthM":2008},"geometry":{"type":"LineString","coordinates":[[106.774899,-6.289253],[106.774937,-6.289254],[106.775823,-6.289271],[106.776071,-6.289269],[106.776312,-6.289237],[106.77693,-6.289144],[106.777217,-6.289124],[106.777457,-6.289122],[106.777721,-6.289146],[106.777928,-6.289191],[106.77826,-6.289284],[106.778587,-6.289429],[106.778867,-6.289622],[106.779605,-6.290089],[106.780099,-6.290387],[106.780658,-6.290674],[106.781111,-6.29085],[106.781682,-6.291037],[106.782446,-6.291274],[106.783237,-6.291498],[106.784072,-6.291743],[106.784932,-6.292021],[106.785586,-6.292217],[106.786097,-6.292323],[106.786514,-6.292381],[106.787414,-6.292403],[106.790541,-6.292421],[106.7924,-6.292428]]}},
{"type":"Feature","properties":{"from":"MRTJ-FTM","to":"MRTJ-CPR","lines":["M"],"lengthM":1842},"geometry":{"type":"LineString","coordinates":[[106.7924,-6.292428],[106.792466,-6.292428],[106.793623,-6.29244],[106.793889,-6.292407],[106.794102,-6.292343],[106.794302,-6.29226],[106.794469,-6.292158],[106.79464,-6.292031],[106.79479,-6.29187],[106.794927,-6.291692],[106.795031,-6.291488],[106.795113,-6.291281],[106.795161,-6.291083],[106.795192,-6.290854],[106.795306,-6.289754],[106.795337,-6.289329],[106.795338,-6.28887],[106.795325,-6.288343],[106.79537,-6.288032],[106.795381,-6.287874],[106.795401,-6.287725],[106.795428,-6.287576],[106.795463,-6.287398],[106.795635,-6.286602],[106.795736,-6.286009],[106.795807,-6.28545],[106.79589,-6.284772],[106.795944,-6.284128],[106.796043,-6.282375],[106.79607,-6.282102],[106.79613,-6.281806],[106.796345,-6.281048],[106.796431,-6.280767],[106.796528,-6.280484],[106.796587,-6.280346],[106.796923,-6.279604],[106.797003,-6.279414],[106.797072,-6.279181],[106.797167,-6.278839],[106.797301,-6.278363],[106.797344,-6.278213]]}},
{"type":"Feature","properties":{"from":"MRTJ-CPR","to":"MRTJ-HJN","lines":["M"],"lengthM":1297},"geometry":{"type":"LineString","coordinates":[[106.797344,-6.278213],[106.797516,-6.277616],[106.797611,-6.277255],[106.797661,-6.277003],[106.797703,-6.27673],[106.797715,-6.276567],[106.797718,-6.276368],[106.79769,-6.274889],[106.797654,-6.274018],[106.797629,-6.273206],[106.797615,-6.272848],[106.797557,-6.271835],[106.797445,-6.270194],[106.797431,-6.270016],[106.797403,-6.269688],[106.797287,-6.26826],[106.797271,-6.267642],[106.79727,-6.267422],[106.797305,-6.266693],[106.797309,-6.266605]]}},
{"type":"Feature","properties":{"from":"MRTJ-HJN","to":"MRTJ-BLA","lines":["M"],"lengthM":1225},"geometry":{"type":"LineString","coordinates":[[106.797309,-6.266605],[106.797347,-6.265862],[106.797355,-6.265494],[106.797352,-6.265182],[106.797343,-6.264717],[106.797327,-6.264503],[106.797294,-6.264311],[106.797197,-6.263948],[106.796958,-6.263188],[106.7967,-6.262325],[106.796631,-6.262051],[106.796595,-6.261755],[106.796588,-6.261545],[106.796599,-6.261234],[106.7967,-6.260169],[106.796916,-6.257809],[106.796957,-6.257358],[106.797016,-6.256772],[106.797119,-6.255782],[106.797126,-6.255713]]}},
{"type":"Feature","properties":{"from":"MRTJ-BLA","to":"MRTJ-BLM","lines":["M"],"lengthM":1263},"geometry":{"type":"LineString","coordinates":[[106.797126,-6.255713],[106.797253,-6.254478],[106.797331,-6.253419],[106.797451,-6.251097],[106.797518,-6.249768],[106.797543,-6.249499],[106.797587,-6.249108],[106.797767,-6.24777],[106.7979,-6.246716],[106.79793,-6.24643],[106.797975,-6.245721],[106.797995,-6.245417],[106.79801,-6.244422],[106.79801,-6.244399]]}},
{"type":"Feature","properties":{"from":"MRTJ-BLM","to":"MRTJ-SSM","lines":["M"],"lengthM":639},"geometry":{"type":"LineString","coordinates":[[106.79801,-6.244399],[106.798019,-6.243817],[106.798023,-6.243537],[106.798042,-6.243314],[106.798078,-6.24312],[106.798135,-6.242909],[106.798209,-6.242682],[106.79834,-6.242255],[106.798392,-6.242033],[106.798429,-6.241716],[106.79842,-6.239893],[106.798424,-6.23877],[106.798424,-6.238701]]}},
{"type":"Feature","properties":{"from":"MRTJ-SSM","to":"MRTJ-SNY","lines":["M"],"lengthM":1508},"geometry":{"type":"LineString","coordinates":[[106.798424,-6.238701],[106.798431,-6.237922],[106.798432,-6.23662],[106.798435,-6.235261],[106.798433,-6.233668],[106.798432,-6.233024],[106.798433,-6.232202],[106.798465,-6.231758],[106.798544,-6.231285],[106.798657,-6.230848],[106.798806,-6.230411],[106.798978,-6.230017],[106.79914,-6.229717],[106.799357,-6.229368],[106.799537,-6.229124],[106.799712,-6.228927],[106.799938,-6.228718],[106.800661,-6.228086],[106.801205,-6.227667],[106.802413,-6.226717]]}},
{"type":"Feature","properties":{"from":"MRTJ-SNY","to":"MRTJ-IST","lines":["M"],"lengthM":841},"geometry":{"type":"LineString","coordinates":[[106.802413,-6.226717],[106.802456,-6.226683],[106.802947,-6.226315],[106.804542,-6.225079],[106.805997,-6.224003],[106.80681,-6.223484],[106.808578,-6.222334],[106.808594,-6.222322]]}},
{"type":"Feature","properties":{"from":"MRTJ-IST","to":"MRTJ-BNH","lines":["M"],"lengthM":1319},"geometry":{"type":"LineString","coordinates":[[106.808594,-6.222322],[106.809613,-6.221542],[106.810374,-6.220933],[106.811643,-6.219974],[106.813455,-6.218537],[106.814502,-6.217693],[106.815145,-6.217164],[106.815958,-6.216526],[106.816817,-6.215845],[106.817906,-6.214985],[106.817946,-6.214949]]}},
{"type":"Feature","properties":{"from":"MRTJ-BNH","to":"MRTJ-STB","lines":["M"],"lengthM":801},"geometry":{"type":"LineString","coordinates":[[106.817946,-6.214949],[106.818415,-6.214513],[106.818761,-6.214154],[106.819047,-6.21382],[106.819514,-6.213183],[106.819889,-6.212576],[106.820423,-6.211576],[106.82113,-6.210184],[106.821435,-6.209537],[106.821641,-6.209049],[106.821702,-6.208866]]}},
{"type":"Feature","properties":{"from":"MRTJ-STB","to":"MRTJ-DKA","lines":["M"],"lengthM":916},"geometry":{"type":"LineString","coordinates":[[106.821702,-6.208866],[106.821727,-6.20879],[106.821839,-6.208358],[106.821969,-6.2077],[106.822027,-6.20726],[106.822092,-6.206586],[106.82218,-6.205828],[106.822239,-6.205216],[106.822285,-6.20468],[106.822327,-6.203619],[106.822399,-6.202925],[106.822501,-6.202089],[106.822678,-6.201119],[106.822746,-6.200786],[106.82276,-6.200711]]}},
{"type":"Feature","properties":{"from":"MRTJ-DKA","to":"MRTJ-BHI","lines":["M"],"lengthM":994},"geometry":{"type":"LineString","coordinates":[[106.82276,-6.200711],[106.82286,-6.200174],[106.82296,-6.199654],[106.823069,-6.198913],[106.823101,-6.198477],[106.823072,-6.197246],[106.823034,-6.195992],[106.82303,-6.195592],[106.823025,-6.195433],[106.822984,-6.194174],[106.822966,-6.193359],[106.822959,-6.191852],[106.822959,-6.191799]]}}
]}
